<?xml version="1.0" encoding="UTF-8" standalone="no" ?><gpx xmlns="http://www.topografix.com/GPX/1/1" xmlns:gpxx="http://www.garmin.com/xmlschemas/GpxExtensions/v3" xmlns:gpxtrkx="http://www.garmin.com/xmlschemas/TrackStatsExtension/v1" xmlns:wptx1="http://www.garmin.com/xmlschemas/WaypointExtension/v1" xmlns:gpxtpx="http://www.garmin.com/xmlschemas/TrackPointExtension/v1" creator="Foretrex" version="1.1" xmlns:xsi="http://www.w3.org/2001/XMLSchema-instance" xsi:schemaLocation="http://www.topografix.com/GPX/1/1 http://www.topografix.com/GPX/1/1/gpx.xsd http://www.garmin.com/xmlschemas/GpxExtensions/v3 http://www8.garmin.com/xmlschemas/GpxExtensionsv3.xsd http://www.garmin.com/xmlschemas/TrackStatsExtension/v1 http://www8.garmin.com/xmlschemas/TrackStatsExtension.xsd http://www.garmin.com/xmlschemas/WaypointExtension/v1 http://www8.garmin.com/xmlschemas/WaypointExtensionv1.xsd http://www.garmin.com/xmlschemas/TrackPointExtension/v1 http://www.garmin.com/xmlschemas/TrackPointExtensionv1.xsd"><metadata><link href="http://www.garmin.com"><text>Garmin International</text></link><time>2026-09-16T09:57:48Z</time></metadata><trk><name>16-SEP-26</name><extensions><gpxx:TrackExtension><gpxx:DisplayColor>Black</gpxx:DisplayColor></gpxx:TrackExtension></extensions><trkseg><trkpt lat="53.5857046209" lon="10.0752887595"><ele>16.48</ele><time>2026-09-16T07:04:10Z</time></trkpt><trkpt lat="53.5858783778" lon="10.0752568245"><ele>16.48</ele><time>2026-09-16T07:04:39Z</time></trkpt><trkpt lat="53.5856268369" lon="10.0752257276"><ele>16.48</ele><time>2026-09-16T07:04:58Z</time></trkpt><trkpt lat="53.5848785006" lon="10.0321889296"><ele>29999.04</ele><time>2026-09-16T08:51:03Z</time></trkpt><trkpt lat="53.5847985372" lon="10.0318583474"><ele>29999.04</ele><time>2026-09-16T08:53:01Z</time></trkpt><trkpt lat="53.5847231839" lon="10.0315391645"><ele>29999.04</ele><time>2026-09-16T08:53:51Z</time></trkpt><trkpt lat="53.5846429691" lon="10.0312482286"><ele>29999.04</ele><time>2026-09-16T08:54:00Z</time></trkpt><trkpt lat="53.5845731478" lon="10.0309671834"><ele>29999.04</ele><time>2026-09-16T08:54:10Z</time></trkpt><trkpt lat="53.5845307354" lon="10.0306688715"><ele>29999.04</ele><time>2026-09-16T08:54:21Z</time></trkpt><trkpt lat="53.5845061764" lon="10.0303491857"><ele>29999.04</ele><time>2026-09-16T08:54:30Z</time></trkpt><trkpt lat="53.5844765883" lon="10.0300263148"><ele>29999.04</ele><time>2026-09-16T08:54:39Z</time></trkpt><trkpt lat="53.5844465811" lon="10.0296940561"><ele>29999.04</ele><time>2026-09-16T08:54:48Z</time></trkpt><trkpt lat="53.5844345950" lon="10.0293623842"><ele>29999.04</ele><time>2026-09-16T08:54:57Z</time></trkpt><trkpt lat="53.5844284762" lon="10.0290355738"><ele>29999.04</ele><time>2026-09-16T08:55:06Z</time></trkpt><trkpt lat="53.5844227765" lon="10.0287008006"><ele>29999.04</ele><time>2026-09-16T08:55:15Z</time></trkpt><trkpt lat="53.5843786877" lon="10.0283715595"><ele>29999.04</ele><time>2026-09-16T08:55:24Z</time></trkpt><trkpt lat="53.5843069386" lon="10.0280702300"><ele>29999.04</ele><time>2026-09-16T08:55:33Z</time></trkpt><trkpt lat="53.5842558928" lon="10.0277373847"><ele>29999.04</ele><time>2026-09-16T08:55:42Z</time></trkpt><trkpt lat="53.5842352733" lon="10.0273882784"><ele>29999.04</ele><time>2026-09-16T08:55:51Z</time></trkpt><trkpt lat="53.5841323435" lon="10.0271074846"><ele>29999.04</ele><time>2026-09-16T08:56:00Z</time></trkpt><trkpt lat="53.5840349458" lon="10.0268033054"><ele>29999.04</ele><time>2026-09-16T08:56:09Z</time></trkpt><trkpt lat="53.5839321837" lon="10.0265048258"><ele>29999.04</ele><time>2026-09-16T08:56:18Z</time></trkpt><trkpt lat="53.5838491190" lon="10.0262077712"><ele>29999.04</ele><time>2026-09-16T08:56:27Z</time></trkpt><trkpt lat="53.5837545712" lon="10.0259019155"><ele>29999.04</ele><time>2026-09-16T08:56:36Z</time></trkpt><trkpt lat="53.5836575925" lon="10.0256266538"><ele>29999.04</ele><time>2026-09-16T08:56:45Z</time></trkpt><trkpt lat="53.5835641343" lon="10.0253334548"><ele>29999.04</ele><time>2026-09-16T08:56:54Z</time></trkpt><trkpt lat="53.5834658984" lon="10.0250390824"><ele>29999.04</ele><time>2026-09-16T08:57:03Z</time></trkpt><trkpt lat="53.5833876114" lon="10.0247432850"><ele>29999.04</ele><time>2026-09-16T08:57:12Z</time></trkpt><trkpt lat="53.5832758807" lon="10.0244527683"><ele>29999.04</ele><time>2026-09-16T08:57:21Z</time></trkpt><trkpt lat="53.5831685923" lon="10.0241539534"><ele>29999.04</ele><time>2026-09-16T08:57:30Z</time></trkpt><trkpt lat="53.5830793250" lon="10.0238869898"><ele>29999.04</ele><time>2026-09-16T08:57:38Z</time></trkpt><trkpt lat="53.5829868726" lon="10.0236250553"><ele>29999.04</ele><time>2026-09-16T08:57:46Z</time></trkpt><trkpt lat="53.5828912351" lon="10.0233627856"><ele>29999.04</ele><time>2026-09-16T08:57:54Z</time></trkpt><trkpt lat="53.5828097630" lon="10.0230498891"><ele>29999.04</ele><time>2026-09-16T08:58:03Z</time></trkpt><trkpt lat="53.5827301349" lon="10.0227767229"><ele>29999.04</ele><time>2026-09-16T08:58:11Z</time></trkpt><trkpt lat="53.5826505069" lon="10.0224802550"><ele>29999.04</ele><time>2026-09-16T08:58:20Z</time></trkpt><trkpt lat="53.5825735610" lon="10.0221811049"><ele>29999.04</ele><time>2026-09-16T08:58:29Z</time></trkpt><trkpt lat="53.5825339984" lon="10.0218628440"><ele>29999.04</ele><time>2026-09-16T08:58:38Z</time></trkpt><trkpt lat="53.5824997164" lon="10.0215470139"><ele>29999.04</ele><time>2026-09-16T08:58:46Z</time></trkpt><trkpt lat="53.5824556276" lon="10.0212406553"><ele>29999.04</ele><time>2026-09-16T08:58:54Z</time></trkpt><trkpt lat="53.5824166518" lon="10.0209299382"><ele>29999.04</ele><time>2026-09-16T08:59:02Z</time></trkpt><trkpt lat="53.5823651869" lon="10.0206171256"><ele>29999.04</ele><time>2026-09-16T08:59:10Z</time></trkpt><trkpt lat="53.5822807811" lon="10.0203307159"><ele>29999.04</ele><time>2026-09-16T08:59:18Z</time></trkpt><trkpt lat="53.5822436493" lon="10.0200104434"><ele>29999.04</ele><time>2026-09-16T08:59:26Z</time></trkpt><trkpt lat="53.5821739119" lon="10.0197457429"><ele>29999.04</ele><time>2026-09-16T08:59:38Z</time></trkpt><trkpt lat="53.5820778552" lon="10.0192973111"><ele>29999.04</ele><time>2026-09-16T08:59:50Z</time></trkpt><trkpt lat="53.5820615944" lon="10.0188369770"><ele>29999.04</ele><time>2026-09-16T08:59:58Z</time></trkpt><trkpt lat="53.5819782782" lon="10.0185030419"><ele>29999.04</ele><time>2026-09-16T09:00:06Z</time></trkpt><trkpt lat="53.5819398053" lon="10.0181877986"><ele>29999.04</ele><time>2026-09-16T09:00:14Z</time></trkpt><trkpt lat="53.5818938725" lon="10.0178712141"><ele>29999.04</ele><time>2026-09-16T09:00:22Z</time></trkpt><trkpt lat="53.5818408150" lon="10.0175697170"><ele>29999.04</ele><time>2026-09-16T09:00:30Z</time></trkpt><trkpt lat="53.5817886796" lon="10.0172591675"><ele>29999.04</ele><time>2026-09-16T09:00:38Z</time></trkpt><trkpt lat="53.5817499552" lon="10.0169325247"><ele>29999.04</ele><time>2026-09-16T09:00:47Z</time></trkpt><trkpt lat="53.5816797987" lon="10.0166297704"><ele>29999.04</ele><time>2026-09-16T09:00:56Z</time></trkpt><trkpt lat="53.5816270765" lon="10.0163227413"><ele>29999.04</ele><time>2026-09-16T09:01:05Z</time></trkpt><trkpt lat="53.5815458558" lon="10.0160292909"><ele>29999.04</ele><time>2026-09-16T09:01:14Z</time></trkpt><trkpt lat="53.5814652219" lon="10.0157527719"><ele>29999.04</ele><time>2026-09-16T09:01:23Z</time></trkpt><trkpt lat="53.5813783016" lon="10.0154713076"><ele>29999.04</ele><time>2026-09-16T09:01:32Z</time></trkpt><trkpt lat="53.5812700912" lon="10.0152154919"><ele>29999.04</ele><time>2026-09-16T09:01:40Z</time></trkpt><trkpt lat="53.5811933968" lon="10.0149005000"><ele>29999.04</ele><time>2026-09-16T09:01:48Z</time></trkpt><trkpt lat="53.5811071470" lon="10.0146605261"><ele>29999.04</ele><time>2026-09-16T09:01:55Z</time></trkpt><trkpt lat="53.5809806641" lon="10.0143719371"><ele>29999.04</ele><time>2026-09-16T09:02:03Z</time></trkpt><trkpt lat="53.5808618926" lon="10.0141306221"><ele>29999.04</ele><time>2026-09-16T09:02:11Z</time></trkpt><trkpt lat="53.5807009600" lon="10.0139804184"><ele>29999.04</ele><time>2026-09-16T09:02:19Z</time></trkpt><trkpt lat="53.5804972798" lon="10.0138450507"><ele>29999.04</ele><time>2026-09-16T09:02:27Z</time></trkpt><trkpt lat="53.5802951083" lon="10.0136846211"><ele>29999.04</ele><time>2026-09-16T09:02:35Z</time></trkpt><trkpt lat="53.5800955351" lon="10.0136070047"><ele>29999.04</ele><time>2026-09-16T09:02:43Z</time></trkpt><trkpt lat="53.5798771027" lon="10.0135443080"><ele>29999.04</ele><time>2026-09-16T09:02:53Z</time></trkpt><trkpt lat="53.5796658788" lon="10.0133901648"><ele>29999.04</ele><time>2026-09-16T09:03:03Z</time></trkpt><trkpt lat="53.5794575885" lon="10.0132911745"><ele>29999.04</ele><time>2026-09-16T09:03:13Z</time></trkpt><trkpt lat="53.5792336240" lon="10.0131113827"><ele>29999.04</ele><time>2026-09-16T09:03:28Z</time></trkpt><trkpt lat="53.5790567659" lon="10.0129567366"><ele>29999.04</ele><time>2026-09-16T09:03:38Z</time></trkpt><trkpt lat="53.5788720287" lon="10.0128383841"><ele>29999.04</ele><time>2026-09-16T09:03:47Z</time></trkpt><trkpt lat="53.5786979366" lon="10.0127039384"><ele>29999.04</ele><time>2026-09-16T09:03:56Z</time></trkpt><trkpt lat="53.5785266105" lon="10.0125653017"><ele>29999.04</ele><time>2026-09-16T09:04:05Z</time></trkpt><trkpt lat="53.5783623252" lon="10.0123772956"><ele>29999.04</ele><time>2026-09-16T09:04:15Z</time></trkpt><trkpt lat="53.5782407038" lon="10.0121426024"><ele>29999.04</ele><time>2026-09-16T09:04:24Z</time></trkpt><trkpt lat="53.5781244468" lon="10.0118758902"><ele>29999.04</ele><time>2026-09-16T09:04:45Z</time></trkpt><trkpt lat="53.5780257080" lon="10.0115863793"><ele>29999.04</ele><time>2026-09-16T09:04:56Z</time></trkpt><trkpt lat="53.5779246222" lon="10.0113275461"><ele>29999.04</ele><time>2026-09-16T09:05:05Z</time></trkpt><trkpt lat="53.5778092034" lon="10.0110738259"><ele>29999.04</ele><time>2026-09-16T09:05:14Z</time></trkpt><trkpt lat="53.5776989814" lon="10.0108033419"><ele>29999.04</ele><time>2026-09-16T09:05:23Z</time></trkpt><trkpt lat="53.5776043497" lon="10.0105170999"><ele>29999.04</ele><time>2026-09-16T09:05:32Z</time></trkpt><trkpt lat="53.5775183514" lon="10.0102244876"><ele>29999.04</ele><time>2026-09-16T09:05:41Z</time></trkpt><trkpt lat="53.5774255637" lon="10.0099421013"><ele>29999.04</ele><time>2026-09-16T09:05:50Z</time></trkpt><trkpt lat="53.5773558263" lon="10.0096517522"><ele>29999.04</ele><time>2026-09-16T09:05:59Z</time></trkpt><trkpt lat="53.5772796348" lon="10.0093349162"><ele>29999.04</ele><time>2026-09-16T09:06:08Z</time></trkpt><trkpt lat="53.5772143397" lon="10.0090138894"><ele>29999.04</ele><time>2026-09-16T09:06:17Z</time></trkpt><trkpt lat="53.5771503020" lon="10.0086964667"><ele>29999.04</ele><time>2026-09-16T09:06:26Z</time></trkpt><trkpt lat="53.5770745296" lon="10.0083936285"><ele>29999.04</ele><time>2026-09-16T09:06:35Z</time></trkpt><trkpt lat="53.5770051274" lon="10.0080958195"><ele>29999.04</ele><time>2026-09-16T09:06:44Z</time></trkpt><trkpt lat="53.5769271757" lon="10.0078017823"><ele>29999.04</ele><time>2026-09-16T09:06:53Z</time></trkpt><trkpt lat="53.5768499784" lon="10.0075188093"><ele>29999.04</ele><time>2026-09-16T09:07:02Z</time></trkpt><trkpt lat="53.5767762177" lon="10.0072247721"><ele>29999.04</ele><time>2026-09-16T09:07:11Z</time></trkpt><trkpt lat="53.5766851902" lon="10.0069587305"><ele>29999.04</ele><time>2026-09-16T09:07:20Z</time></trkpt><trkpt lat="53.5766001139" lon="10.0066854805"><ele>29999.04</ele><time>2026-09-16T09:07:29Z</time></trkpt><trkpt lat="53.5765126068" lon="10.0063909404"><ele>29999.04</ele><time>2026-09-16T09:07:38Z</time></trkpt><trkpt lat="53.5764380917" lon="10.0060971547"><ele>29999.04</ele><time>2026-09-16T09:07:47Z</time></trkpt><trkpt lat="53.5763731319" lon="10.0057959929"><ele>29999.04</ele><time>2026-09-16T09:07:56Z</time></trkpt><trkpt lat="53.5763070825" lon="10.0054941606"><ele>29999.04</ele><time>2026-09-16T09:08:05Z</time></trkpt><trkpt lat="53.5763274506" lon="10.0051910710"><ele>29999.04</ele><time>2026-09-16T09:08:14Z</time></trkpt><trkpt lat="53.5764004570" lon="10.0048972014"><ele>29999.04</ele><time>2026-09-16T09:08:23Z</time></trkpt><trkpt lat="53.5764885508" lon="10.0046016555"><ele>29999.04</ele><time>2026-09-16T09:08:32Z</time></trkpt><trkpt lat="53.5765856970" lon="10.0043203589"><ele>29999.04</ele><time>2026-09-16T09:08:41Z</time></trkpt><trkpt lat="53.5766768921" lon="10.0040424988"><ele>29999.04</ele><time>2026-09-16T09:08:50Z</time></trkpt><trkpt lat="53.5767662432" lon="10.0037570111"><ele>29999.04</ele><time>2026-09-16T09:08:59Z</time></trkpt><trkpt lat="53.5768343043" lon="10.0034504849"><ele>29999.04</ele><time>2026-09-16T09:09:08Z</time></trkpt><trkpt lat="53.5768972524" lon="10.0031399354"><ele>29999.04</ele><time>2026-09-16T09:09:17Z</time></trkpt><trkpt lat="53.5769460350" lon="10.0028249435"><ele>29999.04</ele><time>2026-09-16T09:09:26Z</time></trkpt><trkpt lat="53.5769861843" lon="10.0025068503"><ele>29999.04</ele><time>2026-09-16T09:09:35Z</time></trkpt><trkpt lat="53.5770105757" lon="10.0021935347"><ele>29999.04</ele><time>2026-09-16T09:09:44Z</time></trkpt><trkpt lat="53.5769872740" lon="10.0018598512"><ele>29999.04</ele><time>2026-09-16T09:09:54Z</time></trkpt><trkpt lat="53.5768317059" lon="10.0016913749"><ele>29999.04</ele><time>2026-09-16T09:10:04Z</time></trkpt><trkpt lat="53.5766386706" lon="10.0017101504"><ele>29999.04</ele><time>2026-09-16T09:10:13Z</time></trkpt><trkpt lat="53.5764432885" lon="10.0017705001"><ele>29999.04</ele><time>2026-09-16T09:10:22Z</time></trkpt><trkpt lat="53.5762515105" lon="10.0018706638"><ele>29999.04</ele><time>2026-09-16T09:10:31Z</time></trkpt><trkpt lat="53.5760804359" lon="10.0019782037"><ele>29999.04</ele><time>2026-09-16T09:10:39Z</time></trkpt><trkpt lat="53.5759059247" lon="10.0020818878"><ele>29999.04</ele><time>2026-09-16T09:10:47Z</time></trkpt><trkpt lat="53.5757292341" lon="10.0021982286"><ele>29999.04</ele><time>2026-09-16T09:10:55Z</time></trkpt><trkpt lat="53.5755553097" lon="10.0023144018"><ele>29999.04</ele><time>2026-09-16T09:11:03Z</time></trkpt><trkpt lat="53.5753802117" lon="10.0024408009"><ele>29999.04</ele><time>2026-09-16T09:11:11Z</time></trkpt><trkpt lat="53.5751997493" lon="10.0025465805"><ele>29999.04</ele><time>2026-09-16T09:11:19Z</time></trkpt><trkpt lat="53.5750152636" lon="10.0026295613"><ele>29999.04</ele><time>2026-09-16T09:11:27Z</time></trkpt><trkpt lat="53.5748430993" lon="10.0027536973"><ele>29999.04</ele><time>2026-09-16T09:11:35Z</time></trkpt><trkpt lat="53.5746587813" lon="10.0028401986"><ele>29999.04</ele><time>2026-09-16T09:11:43Z</time></trkpt><trkpt lat="53.5744732898" lon="10.0029250234"><ele>29999.04</ele><time>2026-09-16T09:11:51Z</time></trkpt><trkpt lat="53.5742980242" lon="10.0030196551"><ele>29999.04</ele><time>2026-09-16T09:11:59Z</time></trkpt><trkpt lat="53.5741268657" lon="10.0031013787"><ele>29999.04</ele><time>2026-09-16T09:12:07Z</time></trkpt><trkpt lat="53.5739422962" lon="10.0031527597"><ele>29999.04</ele><time>2026-09-16T09:12:15Z</time></trkpt><trkpt lat="53.5737592354" lon="10.0031991955"><ele>29999.04</ele><time>2026-09-16T09:12:23Z</time></trkpt><trkpt lat="53.5735744983" lon="10.0032537617"><ele>29999.04</ele><time>2026-09-16T09:12:31Z</time></trkpt><trkpt lat="53.5733768530" lon="10.0033206493"><ele>29999.04</ele><time>2026-09-16T09:12:40Z</time></trkpt><trkpt lat="53.5731818061" lon="10.0033967569"><ele>29999.04</ele><time>2026-09-16T09:12:49Z</time></trkpt><trkpt lat="53.5729887709" lon="10.0034723617"><ele>29999.04</ele><time>2026-09-16T09:12:58Z</time></trkpt><trkpt lat="53.5727944784" lon="10.0035043806"><ele>29999.04</ele><time>2026-09-16T09:13:07Z</time></trkpt><trkpt lat="53.5726067238" lon="10.0035533309"><ele>29999.04</ele><time>2026-09-16T09:13:16Z</time></trkpt><trkpt lat="53.5724190529" lon="10.0035835896"><ele>29999.04</ele><time>2026-09-16T09:13:25Z</time></trkpt><trkpt lat="53.5722302087" lon="10.0035856012"><ele>29999.04</ele><time>2026-09-16T09:13:34Z</time></trkpt><trkpt lat="53.5720486566" lon="10.0035861880"><ele>29999.04</ele><time>2026-09-16T09:13:42Z</time></trkpt><trkpt lat="53.5718464013" lon="10.0035650656"><ele>29999.04</ele><time>2026-09-16T09:13:50Z</time></trkpt><trkpt lat="53.5716430563" lon="10.0035449490"><ele>29999.04</ele><time>2026-09-16T09:13:58Z</time></trkpt><trkpt lat="53.5714350175" lon="10.0035559293"><ele>29999.04</ele><time>2026-09-16T09:14:06Z</time></trkpt><trkpt lat="53.5712515377" lon="10.0035660714"><ele>29999.04</ele><time>2026-09-16T09:14:13Z</time></trkpt><trkpt lat="53.5710507911" lon="10.0035524927"><ele>29999.04</ele><time>2026-09-16T09:14:21Z</time></trkpt><trkpt lat="53.5708481167" lon="10.0035181269"><ele>29999.04</ele><time>2026-09-16T09:14:29Z</time></trkpt><trkpt lat="53.5706483759" lon="10.0034671649"><ele>29999.04</ele><time>2026-09-16T09:14:37Z</time></trkpt><trkpt lat="53.5704461206" lon="10.0034364872"><ele>29999.04</ele><time>2026-09-16T09:14:45Z</time></trkpt><trkpt lat="53.5702563543" lon="10.0034072343"><ele>29999.04</ele><time>2026-09-16T09:14:53Z</time></trkpt><trkpt lat="53.5700601339" lon="10.0033736229"><ele>29999.04</ele><time>2026-09-16T09:15:02Z</time></trkpt><trkpt lat="53.5698621534" lon="10.0033474714"><ele>29999.04</ele><time>2026-09-16T09:15:11Z</time></trkpt><trkpt lat="53.5696610715" lon="10.0033289474"><ele>29999.04</ele><time>2026-09-16T09:15:20Z</time></trkpt><trkpt lat="53.5694617499" lon="10.0033312105"><ele>29999.04</ele><time>2026-09-16T09:15:29Z</time></trkpt><trkpt lat="53.5692821257" lon="10.0033427775"><ele>29999.04</ele><time>2026-09-16T09:15:37Z</time></trkpt><trkpt lat="53.5690796189" lon="10.0033466332"><ele>29999.04</ele><time>2026-09-16T09:15:46Z</time></trkpt><trkpt lat="53.5688800458" lon="10.0033253431"><ele>29999.04</ele><time>2026-09-16T09:15:54Z</time></trkpt><trkpt lat="53.5686857533" lon="10.0033026282"><ele>29999.04</ele><time>2026-09-16T09:16:02Z</time></trkpt><trkpt lat="53.5684915446" lon="10.0032742973"><ele>29999.04</ele><time>2026-09-16T09:16:10Z</time></trkpt><trkpt lat="53.5683016106" lon="10.0032283645"><ele>29999.04</ele><time>2026-09-16T09:16:18Z</time></trkpt><trkpt lat="53.5681127664" lon="10.0031943340"><ele>29999.04</ele><time>2026-09-16T09:16:26Z</time></trkpt><trkpt lat="53.5679189768" lon="10.0031641591"><ele>29999.04</ele><time>2026-09-16T09:16:34Z</time></trkpt><trkpt lat="53.5677264445" lon="10.0031246804"><ele>29999.04</ele><time>2026-09-16T09:16:42Z</time></trkpt><trkpt lat="53.5675416235" lon="10.0030956790"><ele>29999.04</ele><time>2026-09-16T09:16:50Z</time></trkpt><trkpt lat="53.5673595686" lon="10.0030526798"><ele>29999.04</ele><time>2026-09-16T09:16:59Z</time></trkpt><trkpt lat="53.5671802796" lon="10.0029691961"><ele>29999.04</ele><time>2026-09-16T09:17:08Z</time></trkpt><trkpt lat="53.5670017451" lon="10.0028883945"><ele>29999.04</ele><time>2026-09-16T09:17:17Z</time></trkpt><trkpt lat="53.5668237135" lon="10.0027842913"><ele>29999.04</ele><time>2026-09-16T09:17:26Z</time></trkpt><trkpt lat="53.5666487832" lon="10.0026584789"><ele>29999.04</ele><time>2026-09-16T09:17:35Z</time></trkpt><trkpt lat="53.5664627049" lon="10.0025523640"><ele>29999.04</ele><time>2026-09-16T09:17:44Z</time></trkpt><trkpt lat="53.5662780516" lon="10.0024158228"><ele>29999.04</ele><time>2026-09-16T09:17:52Z</time></trkpt><trkpt lat="53.5661064740" lon="10.0022768509"><ele>29999.04</ele><time>2026-09-16T09:17:59Z</time></trkpt><trkpt lat="53.5659326334" lon="10.0021563191"><ele>29999.04</ele><time>2026-09-16T09:18:06Z</time></trkpt><trkpt lat="53.5657580383" lon="10.0020436663"><ele>29999.04</ele><time>2026-09-16T09:18:13Z</time></trkpt><trkpt lat="53.5655909032" lon="10.0019082148"><ele>29999.04</ele><time>2026-09-16T09:18:20Z</time></trkpt><trkpt lat="53.5654089320" lon="10.0017572567"><ele>29999.04</ele><time>2026-09-16T09:18:28Z</time></trkpt><trkpt lat="53.5652264580" lon="10.0016171113"><ele>29999.04</ele><time>2026-09-16T09:18:36Z</time></trkpt><trkpt lat="53.5650275555" lon="10.0015243236"><ele>29999.04</ele><time>2026-09-16T09:18:44Z</time></trkpt><trkpt lat="53.5648547206" lon="10.0014415942"><ele>29999.04</ele><time>2026-09-16T09:18:52Z</time></trkpt><trkpt lat="53.5646852385" lon="10.0013162009"><ele>29999.04</ele><time>2026-09-16T09:19:01Z</time></trkpt><trkpt lat="53.5645097215" lon="10.0011912268"><ele>29999.04</ele><time>2026-09-16T09:19:10Z</time></trkpt><trkpt lat="53.5643362161" lon="10.0010648277"><ele>29999.04</ele><time>2026-09-16T09:19:19Z</time></trkpt><trkpt lat="53.5641621239" lon="10.0009541027"><ele>29999.04</ele><time>2026-09-16T09:19:28Z</time></trkpt><trkpt lat="53.5639784764" lon="10.0008396059"><ele>29999.04</ele><time>2026-09-16T09:19:37Z</time></trkpt><trkpt lat="53.5637955833" lon="10.0007195771"><ele>29999.04</ele><time>2026-09-16T09:19:46Z</time></trkpt><trkpt lat="53.5636284482" lon="10.0006049126"><ele>29999.04</ele><time>2026-09-16T09:19:54Z</time></trkpt><trkpt lat="53.5634484049" lon="10.0004883204"><ele>29999.04</ele><time>2026-09-16T09:20:02Z</time></trkpt><trkpt lat="53.5632706247" lon="10.0003948621"><ele>29999.04</ele><time>2026-09-16T09:20:10Z</time></trkpt><trkpt lat="53.5630892403" lon="10.0003131386"><ele>29999.04</ele><time>2026-09-16T09:20:18Z</time></trkpt><trkpt lat="53.5629071854" lon="10.0002527051"><ele>29999.04</ele><time>2026-09-16T09:20:26Z</time></trkpt><trkpt lat="53.5627282318" lon="10.0001787767"><ele>29999.04</ele><time>2026-09-16T09:20:34Z</time></trkpt><trkpt lat="53.5625522118" lon="10.0001117215"><ele>29999.04</ele><time>2026-09-16T09:20:42Z</time></trkpt><trkpt lat="53.5623735096" lon="10.0000657886"><ele>29999.04</ele><time>2026-09-16T09:20:50Z</time></trkpt><trkpt lat="53.5621975735" lon="10.0000002421"><ele>29999.04</ele><time>2026-09-16T09:20:58Z</time></trkpt><trkpt lat="53.5620266665" lon="9.9999038503"><ele>29999.04</ele><time>2026-09-16T09:21:06Z</time></trkpt><trkpt lat="53.5618335474" lon="9.9998206180"><ele>29999.04</ele><time>2026-09-16T09:21:15Z</time></trkpt><trkpt lat="53.5616408475" lon="9.9997484498"><ele>29999.04</ele><time>2026-09-16T09:21:24Z</time></trkpt><trkpt lat="53.5614375025" lon="9.9996896088"><ele>29999.04</ele><time>2026-09-16T09:21:33Z</time></trkpt><trkpt lat="53.5612453055" lon="9.9996354617"><ele>29999.04</ele><time>2026-09-16T09:21:41Z</time></trkpt><trkpt lat="53.5610604007" lon="9.9995725974"><ele>29999.04</ele><time>2026-09-16T09:21:49Z</time></trkpt><trkpt lat="53.5608695447" lon="9.9995065480"><ele>29999.04</ele><time>2026-09-16T09:21:58Z</time></trkpt><trkpt lat="53.5606977995" lon="9.9994255789"><ele>29999.04</ele><time>2026-09-16T09:22:13Z</time></trkpt><trkpt lat="53.5605174210" lon="9.9993650615"><ele>29999.04</ele><time>2026-09-16T09:22:29Z</time></trkpt><trkpt lat="53.5603434965" lon="9.9992698431"><ele>29999.04</ele><time>2026-09-16T09:22:38Z</time></trkpt><trkpt lat="53.5601679794" lon="9.9991603754"><ele>29999.04</ele><time>2026-09-16T09:22:47Z</time></trkpt><trkpt lat="53.5599941388" lon="9.9990244210"><ele>29999.04</ele><time>2026-09-16T09:22:56Z</time></trkpt><trkpt lat="53.5598133411" lon="9.9989011232"><ele>29999.04</ele><time>2026-09-16T09:23:05Z</time></trkpt><trkpt lat="53.5596355610" lon="9.9987866264"><ele>29999.04</ele><time>2026-09-16T09:23:14Z</time></trkpt><trkpt lat="53.5594511591" lon="9.9986656755"><ele>29999.04</ele><time>2026-09-16T09:23:23Z</time></trkpt><trkpt lat="53.5592684336" lon="9.9985477421"><ele>29999.04</ele><time>2026-09-16T09:23:32Z</time></trkpt><trkpt lat="53.5590857919" lon="9.9984342512"><ele>29999.04</ele><time>2026-09-16T09:23:41Z</time></trkpt><trkpt lat="53.5588995460" lon="9.9983396195"><ele>29999.04</ele><time>2026-09-16T09:23:50Z</time></trkpt><trkpt lat="53.5587147251" lon="9.9983330816"><ele>29999.04</ele><time>2026-09-16T09:23:59Z</time></trkpt><trkpt lat="53.5585480090" lon="9.9984839559"><ele>29999.04</ele><time>2026-09-16T09:24:08Z</time></trkpt><trkpt lat="53.5584230348" lon="9.9987404421"><ele>29999.04</ele><time>2026-09-16T09:24:17Z</time></trkpt><trkpt lat="53.5583136510" lon="9.9990222417"><ele>29999.04</ele><time>2026-09-16T09:24:26Z</time></trkpt><trkpt lat="53.5582792014" lon="9.9993585236"><ele>29999.04</ele><time>2026-09-16T09:24:35Z</time></trkpt><trkpt lat="53.5582778603" lon="9.9996654689"><ele>29999.04</ele><time>2026-09-16T09:24:43Z</time></trkpt><trkpt lat="53.5583070293" lon="9.9999653734"><ele>29999.04</ele><time>2026-09-16T09:24:51Z</time></trkpt><trkpt lat="53.5583600029" lon="10.0002592430"><ele>29999.04</ele><time>2026-09-16T09:24:59Z</time></trkpt><trkpt lat="53.5584161617" lon="10.0005511008"><ele>29999.04</ele><time>2026-09-16T09:25:07Z</time></trkpt><trkpt lat="53.5584690515" lon="10.0008499157"><ele>29999.04</ele><time>2026-09-16T09:25:15Z</time></trkpt><trkpt lat="53.5585283954" lon="10.0011446234"><ele>29999.04</ele><time>2026-09-16T09:25:23Z</time></trkpt><trkpt lat="53.5585948639" lon="10.0014369842"><ele>29999.04</ele><time>2026-09-16T09:25:31Z</time></trkpt><trkpt lat="53.5586660262" lon="10.0017295126"><ele>29999.04</ele><time>2026-09-16T09:25:39Z</time></trkpt><trkpt lat="53.5587355960" lon="10.0020414032"><ele>29999.04</ele><time>2026-09-16T09:25:47Z</time></trkpt><trkpt lat="53.5587934311" lon="10.0023574848"><ele>29999.04</ele><time>2026-09-16T09:25:55Z</time></trkpt><trkpt lat="53.5588594805" lon="10.0026646815"><ele>29999.04</ele><time>2026-09-16T09:26:03Z</time></trkpt><trkpt lat="53.5589287989" lon="10.0029741414"><ele>29999.04</ele><time>2026-09-16T09:26:11Z</time></trkpt><trkpt lat="53.5590017214" lon="10.0032764766"><ele>29999.04</ele><time>2026-09-16T09:26:19Z</time></trkpt><trkpt lat="53.5590652563" lon="10.0035866909"><ele>29999.04</ele><time>2026-09-16T09:26:27Z</time></trkpt><trkpt lat="53.5591271985" lon="10.0038924627"><ele>29999.04</ele><time>2026-09-16T09:26:35Z</time></trkpt><trkpt lat="53.5591850337" lon="10.0041963905"><ele>29999.04</ele><time>2026-09-16T09:26:43Z</time></trkpt><trkpt lat="53.5592626501" lon="10.0044809561"><ele>29999.04</ele><time>2026-09-16T09:26:51Z</time></trkpt><trkpt lat="53.5593636520" lon="10.0047580618"><ele>29999.04</ele><time>2026-09-16T09:26:59Z</time></trkpt><trkpt lat="53.5594775621" lon="10.0050126202"><ele>29999.04</ele><time>2026-09-16T09:27:07Z</time></trkpt><trkpt lat="53.5595918912" lon="10.0052611437"><ele>29999.04</ele><time>2026-09-16T09:27:15Z</time></trkpt><trkpt lat="53.5596920550" lon="10.0055340584"><ele>29999.04</ele><time>2026-09-16T09:27:23Z</time></trkpt><trkpt lat="53.5598003492" lon="10.0058009382"><ele>29999.04</ele><time>2026-09-16T09:27:31Z</time></trkpt><trkpt lat="53.5598994233" lon="10.0060620345"><ele>29999.04</ele><time>2026-09-16T09:27:39Z</time></trkpt><trkpt lat="53.5599962343" lon="10.0063260645"><ele>29999.04</ele><time>2026-09-16T09:27:47Z</time></trkpt><trkpt lat="53.5600956436" lon="10.0066086184"><ele>29999.04</ele><time>2026-09-16T09:27:56Z</time></trkpt><trkpt lat="53.5602061171" lon="10.0068879873"><ele>29999.04</ele><time>2026-09-16T09:28:05Z</time></trkpt><trkpt lat="53.5602989048" lon="10.0071862154"><ele>29999.04</ele><time>2026-09-16T09:28:14Z</time></trkpt><trkpt lat="53.5603802092" lon="10.0074619800"><ele>29999.04</ele><time>2026-09-16T09:28:22Z</time></trkpt><trkpt lat="53.5604659561" lon="10.0077316258"><ele>29999.04</ele><time>2026-09-16T09:28:30Z</time></trkpt><trkpt lat="53.5605461709" lon="10.0080205500"><ele>29999.04</ele><time>2026-09-16T09:28:38Z</time></trkpt><trkpt lat="53.5606267210" lon="10.0082907826"><ele>29999.04</ele><time>2026-09-16T09:28:46Z</time></trkpt><trkpt lat="53.5607342608" lon="10.0085457601"><ele>29999.04</ele><time>2026-09-16T09:28:54Z</time></trkpt><trkpt lat="53.5608526971" lon="10.0087938644"><ele>29999.04</ele><time>2026-09-16T09:29:02Z</time></trkpt><trkpt lat="53.5609723907" lon="10.0090536196"><ele>29999.04</ele><time>2026-09-16T09:29:10Z</time></trkpt><trkpt lat="53.5610681958" lon="10.0093354192"><ele>29999.04</ele><time>2026-09-16T09:29:18Z</time></trkpt><trkpt lat="53.5611761548" lon="10.0096030533"><ele>29999.04</ele><time>2026-09-16T09:29:26Z</time></trkpt><trkpt lat="53.5612824373" lon="10.0098808296"><ele>29999.04</ele><time>2026-09-16T09:29:34Z</time></trkpt><trkpt lat="53.5613780748" lon="10.0101700891"><ele>29999.04</ele><time>2026-09-16T09:29:42Z</time></trkpt><trkpt lat="53.5614771489" lon="10.0104484521"><ele>29999.04</ele><time>2026-09-16T09:29:50Z</time></trkpt><trkpt lat="53.5615650751" lon="10.0107362028"><ele>29999.04</ele><time>2026-09-16T09:29:58Z</time></trkpt><trkpt lat="53.5616539232" lon="10.0110277254"><ele>29999.04</ele><time>2026-09-16T09:30:06Z</time></trkpt><trkpt lat="53.5617208946" lon="10.0113274623"><ele>29999.04</ele><time>2026-09-16T09:30:14Z</time></trkpt><trkpt lat="53.5617949069" lon="10.0116281211"><ele>29999.04</ele><time>2026-09-16T09:30:22Z</time></trkpt><trkpt lat="53.5618741997" lon="10.0119116809"><ele>29999.04</ele><time>2026-09-16T09:30:30Z</time></trkpt><trkpt lat="53.5619793925" lon="10.0121660717"><ele>29999.04</ele><time>2026-09-16T09:30:38Z</time></trkpt><trkpt lat="53.5620976612" lon="10.0124149304"><ele>29999.04</ele><time>2026-09-16T09:30:46Z</time></trkpt><trkpt lat="53.5622145887" lon="10.0126490369"><ele>29999.04</ele><time>2026-09-16T09:30:54Z</time></trkpt><trkpt lat="53.5623296723" lon="10.0128979795"><ele>29999.04</ele><time>2026-09-16T09:31:02Z</time></trkpt><trkpt lat="53.5624523833" lon="10.0131338462"><ele>29999.04</ele><time>2026-09-16T09:31:10Z</time></trkpt><trkpt lat="53.5626204405" lon="10.0133143086"><ele>29999.04</ele><time>2026-09-16T09:31:19Z</time></trkpt><trkpt lat="53.5627909284" lon="10.0134906638"><ele>29999.04</ele><time>2026-09-16T09:31:28Z</time></trkpt><trkpt lat="53.5629473347" lon="10.0136427954"><ele>29999.04</ele><time>2026-09-16T09:31:36Z</time></trkpt><trkpt lat="53.5631143861" lon="10.0138091762"><ele>29999.04</ele><time>2026-09-16T09:31:45Z</time></trkpt><trkpt lat="53.5632654279" lon="10.0140151195"><ele>29999.04</ele><time>2026-09-16T09:31:54Z</time></trkpt><trkpt lat="53.5634264443" lon="10.0141932350"><ele>29999.04</ele><time>2026-09-16T09:32:03Z</time></trkpt><trkpt lat="53.5635945015" lon="10.0143275131"><ele>29999.04</ele><time>2026-09-16T09:32:12Z</time></trkpt><trkpt lat="53.5637864470" lon="10.0143657345"><ele>29999.04</ele><time>2026-09-16T09:32:21Z</time></trkpt><trkpt lat="53.5639728606" lon="10.0143058877"><ele>29999.04</ele><time>2026-09-16T09:32:30Z</time></trkpt><trkpt lat="53.5641410854" lon="10.0141737051"><ele>29999.04</ele><time>2026-09-16T09:32:39Z</time></trkpt><trkpt lat="53.5643137526" lon="10.0140445400"><ele>29999.04</ele><time>2026-09-16T09:32:48Z</time></trkpt><trkpt lat="53.5644901078" lon="10.0138950907"><ele>29999.04</ele><time>2026-09-16T09:32:57Z</time></trkpt><trkpt lat="53.5646547284" lon="10.0137641653"><ele>29999.04</ele><time>2026-09-16T09:33:05Z</time></trkpt><trkpt lat="53.5648270603" lon="10.0136246067"><ele>29999.04</ele><time>2026-09-16T09:33:14Z</time></trkpt><trkpt lat="53.5649997275" lon="10.0135516841"><ele>29999.04</ele><time>2026-09-16T09:33:24Z</time></trkpt><trkpt lat="53.5651544575" lon="10.0137038156"><ele>29999.04</ele><time>2026-09-16T09:33:36Z</time></trkpt><trkpt lat="53.5653019790" lon="10.0139409397"><ele>29999.04</ele><time>2026-09-16T09:33:45Z</time></trkpt><trkpt lat="53.5654469859" lon="10.0141245034"><ele>29999.04</ele><time>2026-09-16T09:33:53Z</time></trkpt><trkpt lat="53.5656157974" lon="10.0142518245"><ele>29999.04</ele><time>2026-09-16T09:34:01Z</time></trkpt><trkpt lat="53.5657951701" lon="10.0143762957"><ele>29999.04</ele><time>2026-09-16T09:34:10Z</time></trkpt><trkpt lat="53.5659527499" lon="10.0145281758"><ele>29999.04</ele><time>2026-09-16T09:34:19Z</time></trkpt><trkpt lat="53.5660758801" lon="10.0147466082"><ele>29999.04</ele><time>2026-09-16T09:34:28Z</time></trkpt><trkpt lat="53.5662226472" lon="10.0149796251"><ele>29999.04</ele><time>2026-09-16T09:34:38Z</time></trkpt><trkpt lat="53.5663819872" lon="10.0151788630"><ele>29999.04</ele><time>2026-09-16T09:34:47Z</time></trkpt><trkpt lat="53.5665414948" lon="10.0153546315"><ele>29999.04</ele><time>2026-09-16T09:34:56Z</time></trkpt><trkpt lat="53.5667198617" lon="10.0154442340"><ele>29999.04</ele><time>2026-09-16T09:35:05Z</time></trkpt><trkpt lat="53.5669074487" lon="10.0153746642"><ele>29999.04</ele><time>2026-09-16T09:35:15Z</time></trkpt><trkpt lat="53.5670263041" lon="10.0151435751"><ele>29999.04</ele><time>2026-09-16T09:35:24Z</time></trkpt><trkpt lat="53.5671610013" lon="10.0148876756"><ele>29999.04</ele><time>2026-09-16T09:35:34Z</time></trkpt><trkpt lat="53.5672869813" lon="10.0146352965"><ele>29999.04</ele><time>2026-09-16T09:35:43Z</time></trkpt><trkpt lat="53.5674018972" lon="10.0143613759"><ele>29999.04</ele><time>2026-09-16T09:35:52Z</time></trkpt><trkpt lat="53.5675307270" lon="10.0141282752"><ele>29999.04</ele><time>2026-09-16T09:36:02Z</time></trkpt><trkpt lat="53.5676531028" lon="10.0138727110"><ele>29999.04</ele><time>2026-09-16T09:36:12Z</time></trkpt><trkpt lat="53.5677308030" lon="10.0135910790"><ele>29999.04</ele><time>2026-09-16T09:36:21Z</time></trkpt><trkpt lat="53.5678063240" lon="10.0133096986"><ele>29999.04</ele><time>2026-09-16T09:36:29Z</time></trkpt><trkpt lat="53.5678670090" lon="10.0130208582"><ele>29999.04</ele><time>2026-09-16T09:36:37Z</time></trkpt><trkpt lat="53.5679178871" lon="10.0127059501"><ele>29999.04</ele><time>2026-09-16T09:36:46Z</time></trkpt><trkpt lat="53.5679887142" lon="10.0123945624"><ele>29999.04</ele><time>2026-09-16T09:36:55Z</time></trkpt><trkpt lat="53.5680677556" lon="10.0121155288"><ele>29999.04</ele><time>2026-09-16T09:37:03Z</time></trkpt><trkpt lat="53.5681459587" lon="10.0118312985"><ele>29999.04</ele><time>2026-09-16T09:37:11Z</time></trkpt><trkpt lat="53.5682459548" lon="10.0115691964"><ele>29999.04</ele><time>2026-09-16T09:37:19Z</time></trkpt><trkpt lat="53.5683460347" lon="10.0112987123"><ele>29999.04</ele><time>2026-09-16T09:37:27Z</time></trkpt><trkpt lat="53.5684421752" lon="10.0110326707"><ele>29999.04</ele><time>2026-09-16T09:37:35Z</time></trkpt><trkpt lat="53.5685203783" lon="10.0107258093"><ele>29999.04</ele><time>2026-09-16T09:37:44Z</time></trkpt><trkpt lat="53.5686306842" lon="10.0104450155"><ele>29999.04</ele><time>2026-09-16T09:37:53Z</time></trkpt><trkpt lat="53.5687386431" lon="10.0101583544"><ele>29999.04</ele><time>2026-09-16T09:38:02Z</time></trkpt><trkpt lat="53.5688775312" lon="10.0099301990"><ele>29999.04</ele><time>2026-09-16T09:38:11Z</time></trkpt><trkpt lat="53.5690082051" lon="10.0096948352"><ele>29999.04</ele><time>2026-09-16T09:38:20Z</time></trkpt><trkpt lat="53.5691680480" lon="10.0094852876"><ele>29999.04</ele><time>2026-09-16T09:38:29Z</time></trkpt><trkpt lat="53.5693213530" lon="10.0092668552"><ele>29999.04</ele><time>2026-09-16T09:38:38Z</time></trkpt><trkpt lat="53.5694800224" lon="10.0090923440"><ele>29999.04</ele><time>2026-09-16T09:38:47Z</time></trkpt><trkpt lat="53.5696321540" lon="10.0088986382"><ele>29999.04</ele><time>2026-09-16T09:38:55Z</time></trkpt><trkpt lat="53.5697790887" lon="10.0087033398"><ele>29999.04</ele><time>2026-09-16T09:39:03Z</time></trkpt><trkpt lat="53.5699504986" lon="10.0085715763"><ele>29999.04</ele><time>2026-09-16T09:39:11Z</time></trkpt><trkpt lat="53.5701290332" lon="10.0084551517"><ele>29999.04</ele><time>2026-09-16T09:39:19Z</time></trkpt><trkpt lat="53.5703039635" lon="10.0083434209"><ele>29999.04</ele><time>2026-09-16T09:39:27Z</time></trkpt><trkpt lat="53.5704888683" lon="10.0082280859"><ele>29999.04</ele><time>2026-09-16T09:39:35Z</time></trkpt><trkpt lat="53.5706666484" lon="10.0081062969"><ele>29999.04</ele><time>2026-09-16T09:39:43Z</time></trkpt><trkpt lat="53.5708361305" lon="10.0079848431"><ele>29999.04</ele><time>2026-09-16T09:39:51Z</time></trkpt><trkpt lat="53.5710103065" lon="10.0078793149"><ele>29999.04</ele><time>2026-09-16T09:39:59Z</time></trkpt><trkpt lat="53.5711887572" lon="10.0077896286"><ele>29999.04</ele><time>2026-09-16T09:40:07Z</time></trkpt><trkpt lat="53.5713730752" lon="10.0077224057"><ele>29999.04</ele><time>2026-09-16T09:40:15Z</time></trkpt><trkpt lat="53.5715502687" lon="10.0076595414"><ele>29999.04</ele><time>2026-09-16T09:40:23Z</time></trkpt><trkpt lat="53.5717334971" lon="10.0075862836"><ele>29999.04</ele><time>2026-09-16T09:40:31Z</time></trkpt><trkpt lat="53.5719211679" lon="10.0075056497"><ele>29999.04</ele><time>2026-09-16T09:40:40Z</time></trkpt><trkpt lat="53.5720992833" lon="10.0074242614"><ele>29999.04</ele><time>2026-09-16T09:40:49Z</time></trkpt><trkpt lat="53.5722813383" lon="10.0072821043"><ele>29999.04</ele><time>2026-09-16T09:40:59Z</time></trkpt><trkpt lat="53.5724388342" lon="10.0071273744"><ele>29999.04</ele><time>2026-09-16T09:41:09Z</time></trkpt><trkpt lat="53.5726161115" lon="10.0070376880"><ele>29999.04</ele><time>2026-09-16T09:41:18Z</time></trkpt><trkpt lat="53.5727889463" lon="10.0069365185"><ele>29999.04</ele><time>2026-09-16T09:41:26Z</time></trkpt><trkpt lat="53.5729858372" lon="10.0068658590"><ele>29999.04</ele><time>2026-09-16T09:41:35Z</time></trkpt><trkpt lat="53.5731593426" lon="10.0067988038"><ele>29999.04</ele><time>2026-09-16T09:41:43Z</time></trkpt><trkpt lat="53.5733376257" lon="10.0066857319"><ele>29999.04</ele><time>2026-09-16T09:41:51Z</time></trkpt><trkpt lat="53.5735112987" lon="10.0065829698"><ele>29999.04</ele><time>2026-09-16T09:41:59Z</time></trkpt><trkpt lat="53.5736836307" lon="10.0064711552"><ele>29999.04</ele><time>2026-09-16T09:42:07Z</time></trkpt><trkpt lat="53.5738626681" lon="10.0063749310"><ele>29999.04</ele><time>2026-09-16T09:42:16Z</time></trkpt><trkpt lat="53.5740522668" lon="10.0062733423"><ele>29999.04</ele><time>2026-09-16T09:42:25Z</time></trkpt><trkpt lat="53.5742406081" lon="10.0061870087"><ele>29999.04</ele><time>2026-09-16T09:42:34Z</time></trkpt><trkpt lat="53.5744371638" lon="10.0061368849"><ele>29999.04</ele><time>2026-09-16T09:42:43Z</time></trkpt><trkpt lat="53.5746274330" lon="10.0060461089"><ele>29999.04</ele><time>2026-09-16T09:42:52Z</time></trkpt><trkpt lat="53.5748155229" lon="10.0059517287"><ele>29999.04</ele><time>2026-09-16T09:43:01Z</time></trkpt><trkpt lat="53.5749982484" lon="10.0058659818"><ele>29999.04</ele><time>2026-09-16T09:43:10Z</time></trkpt><trkpt lat="53.5751844943" lon="10.0057806540"><ele>29999.04</ele><time>2026-09-16T09:43:19Z</time></trkpt><trkpt lat="53.5753773618" lon="10.0057526585"><ele>29999.04</ele><time>2026-09-16T09:43:28Z</time></trkpt><trkpt lat="53.5755640268" lon="10.0058456138"><ele>29999.04</ele><time>2026-09-16T09:43:37Z</time></trkpt><trkpt lat="53.5757271387" lon="10.0059814006"><ele>29999.04</ele><time>2026-09-16T09:43:45Z</time></trkpt><trkpt lat="53.5758796055" lon="10.0061872602"><ele>29999.04</ele><time>2026-09-16T09:43:53Z</time></trkpt><trkpt lat="53.5759916715" lon="10.0064335205"><ele>29999.04</ele><time>2026-09-16T09:44:01Z</time></trkpt><trkpt lat="53.5761063360" lon="10.0066914316"><ele>29999.04</ele><time>2026-09-16T09:44:09Z</time></trkpt><trkpt lat="53.5762100201" lon="10.0069538690"><ele>29999.04</ele><time>2026-09-16T09:44:17Z</time></trkpt><trkpt lat="53.5763069987" lon="10.0072170608"><ele>29999.04</ele><time>2026-09-16T09:44:25Z</time></trkpt><trkpt lat="53.5764012113" lon="10.0074875448"><ele>29999.04</ele><time>2026-09-16T09:44:33Z</time></trkpt><trkpt lat="53.5764935799" lon="10.0077834260"><ele>29999.04</ele><time>2026-09-16T09:44:42Z</time></trkpt><trkpt lat="53.5765624791" lon="10.0081030279"><ele>29999.04</ele><time>2026-09-16T09:44:51Z</time></trkpt><trkpt lat="53.5766674206" lon="10.0083642080"><ele>29999.04</ele><time>2026-09-16T09:45:00Z</time></trkpt><trkpt lat="53.5767898802" lon="10.0086015835"><ele>29999.04</ele><time>2026-09-16T09:45:08Z</time></trkpt><trkpt lat="53.5769182909" lon="10.0088268891"><ele>29999.04</ele><time>2026-09-16T09:45:16Z</time></trkpt><trkpt lat="53.5770451929" lon="10.0090690423"><ele>29999.04</ele><time>2026-09-16T09:45:24Z</time></trkpt><trkpt lat="53.5771658085" lon="10.0093360897"><ele>29999.04</ele><time>2026-09-16T09:45:32Z</time></trkpt><trkpt lat="53.5772772878" lon="10.0096152909"><ele>29999.04</ele><time>2026-09-16T09:45:40Z</time></trkpt><trkpt lat="53.5773747694" lon="10.0098956656"><ele>29999.04</ele><time>2026-09-16T09:45:48Z</time></trkpt><trkpt lat="53.5774269886" lon="10.0101944804"><ele>29999.04</ele><time>2026-09-16T09:45:56Z</time></trkpt><trkpt lat="53.5775450896" lon="10.0104648806"><ele>29999.04</ele><time>2026-09-16T09:46:04Z</time></trkpt><trkpt lat="53.5776476841" lon="10.0107507873"><ele>29999.04</ele><time>2026-09-16T09:46:12Z</time></trkpt><trkpt lat="53.5777363647" lon="10.0110367779"><ele>29999.04</ele><time>2026-09-16T09:46:20Z</time></trkpt><trkpt lat="53.5778181721" lon="10.0113077648"><ele>29999.04</ele><time>2026-09-16T09:46:28Z</time></trkpt><trkpt lat="53.5779095348" lon="10.0116095133"><ele>29999.04</ele><time>2026-09-16T09:46:37Z</time></trkpt><trkpt lat="53.5779814515" lon="10.0118862838"><ele>29999.04</ele><time>2026-09-16T09:46:45Z</time></trkpt><trkpt lat="53.5780661087" lon="10.0121525768"><ele>29999.04</ele><time>2026-09-16T09:46:53Z</time></trkpt><trkpt lat="53.5781959444" lon="10.0123648066"><ele>29999.04</ele><time>2026-09-16T09:47:01Z</time></trkpt><trkpt lat="53.5783555359" lon="10.0125232246"><ele>29999.04</ele><time>2026-09-16T09:47:09Z</time></trkpt><trkpt lat="53.5785142891" lon="10.0126739312"><ele>29999.04</ele><time>2026-09-16T09:47:17Z</time></trkpt><trkpt lat="53.5787001159" lon="10.0127993245"><ele>29999.04</ele><time>2026-09-16T09:47:26Z</time></trkpt><trkpt lat="53.5788721126" lon="10.0129209459"><ele>29999.04</ele><time>2026-09-16T09:47:34Z</time></trkpt><trkpt lat="53.5790463723" lon="10.0130475126"><ele>29999.04</ele><time>2026-09-16T09:47:42Z</time></trkpt><trkpt lat="53.5792358033" lon="10.0131615065"><ele>29999.04</ele><time>2026-09-16T09:47:50Z</time></trkpt><trkpt lat="53.5793782957" lon="10.0133361015"><ele>29999.04</ele><time>2026-09-16T09:48:02Z</time></trkpt><trkpt lat="53.5796116479" lon="10.0134897418"><ele>29999.04</ele><time>2026-09-16T09:48:10Z</time></trkpt><trkpt lat="53.5797809623" lon="10.0136494171"><ele>29999.04</ele><time>2026-09-16T09:48:18Z</time></trkpt><trkpt lat="53.5799708124" lon="10.0137758162"><ele>29999.04</ele><time>2026-09-16T09:48:26Z</time></trkpt><trkpt lat="53.5801582318" lon="10.0139101781"><ele>29999.04</ele><time>2026-09-16T09:48:34Z</time></trkpt><trkpt lat="53.5803611577" lon="10.0139741320"><ele>29999.04</ele><time>2026-09-16T09:48:42Z</time></trkpt><trkpt lat="53.5805400275" lon="10.0141092483"><ele>29999.04</ele><time>2026-09-16T09:48:50Z</time></trkpt><trkpt lat="53.5807072464" lon="10.0142829213"><ele>29999.04</ele><time>2026-09-16T09:48:58Z</time></trkpt><trkpt lat="53.5808640718" lon="10.0144681614"><ele>29999.04</ele><time>2026-09-16T09:49:06Z</time></trkpt><trkpt lat="53.5809830111" lon="10.0147026870"><ele>29999.04</ele><time>2026-09-16T09:49:14Z</time></trkpt><trkpt lat="53.5811104160" lon="10.0149682257"><ele>29999.04</ele><time>2026-09-16T09:49:22Z</time></trkpt><trkpt lat="53.5812357254" lon="10.0152102113"><ele>29999.04</ele><time>2026-09-16T09:49:30Z</time></trkpt><trkpt lat="53.5813448578" lon="10.0154720619"><ele>29999.04</ele><time>2026-09-16T09:49:38Z</time></trkpt><trkpt lat="53.5814352985" lon="10.0157554541"><ele>29999.04</ele><time>2026-09-16T09:49:46Z</time></trkpt><trkpt lat="53.5815155972" lon="10.0160394330"><ele>29999.04</ele><time>2026-09-16T09:49:54Z</time></trkpt><trkpt lat="53.5815644637" lon="10.0163409300"><ele>29999.04</ele><time>2026-09-16T09:50:02Z</time></trkpt><trkpt lat="53.5816152580" lon="10.0166497193"><ele>29999.04</ele><time>2026-09-16T09:50:10Z</time></trkpt><trkpt lat="53.5816873424" lon="10.0169450976"><ele>29999.04</ele><time>2026-09-16T09:50:18Z</time></trkpt><trkpt lat="53.5817242227" lon="10.0172509532"><ele>29999.04</ele><time>2026-09-16T09:50:26Z</time></trkpt><trkpt lat="53.5817798786" lon="10.0175580662"><ele>29999.04</ele><time>2026-09-16T09:50:34Z</time></trkpt><trkpt lat="53.5818426590" lon="10.0178683642"><ele>29999.04</ele><time>2026-09-16T09:50:42Z</time></trkpt><trkpt lat="53.5818950459" lon="10.0181767344"><ele>29999.04</ele><time>2026-09-16T09:50:50Z</time></trkpt><trkpt lat="53.5819450021" lon="10.0185027067"><ele>29999.04</ele><time>2026-09-16T09:50:59Z</time></trkpt><trkpt lat="53.5819868278" lon="10.0188108254"><ele>29999.04</ele><time>2026-09-16T09:51:07Z</time></trkpt><trkpt lat="53.5820320901" lon="10.0191191956"><ele>29999.04</ele><time>2026-09-16T09:51:15Z</time></trkpt><trkpt lat="53.5820925236" lon="10.0194123108"><ele>29999.04</ele><time>2026-09-16T09:51:25Z</time></trkpt><trkpt lat="53.5821714811" lon="10.0198272988"><ele>29999.04</ele><time>2026-09-16T09:51:36Z</time></trkpt><trkpt lat="53.5821905080" lon="10.0201664306"><ele>29999.04</ele><time>2026-09-16T09:51:44Z</time></trkpt><trkpt lat="53.5822372790" lon="10.0205291156"><ele>29999.04</ele><time>2026-09-16T09:51:53Z</time></trkpt><trkpt lat="53.5822615866" lon="10.0208469573"><ele>29999.04</ele><time>2026-09-16T09:52:01Z</time></trkpt><trkpt lat="53.5822886601" lon="10.0211737677"><ele>29999.04</ele><time>2026-09-16T09:52:09Z</time></trkpt><trkpt lat="53.5823502671" lon="10.0214672182"><ele>29999.04</ele><time>2026-09-16T09:52:17Z</time></trkpt><trkpt lat="53.5823839623" lon="10.0217953697"><ele>29999.04</ele><time>2026-09-16T09:52:25Z</time></trkpt><trkpt lat="53.5824490059" lon="10.0220815279"><ele>29999.04</ele><time>2026-09-16T09:52:33Z</time></trkpt><trkpt lat="53.5825254489" lon="10.0223634951"><ele>29999.04</ele><time>2026-09-16T09:52:41Z</time></trkpt><trkpt lat="53.5826079268" lon="10.0226529222"><ele>29999.04</ele><time>2026-09-16T09:52:49Z</time></trkpt><trkpt lat="53.5826821905" lon="10.0229490548"><ele>29999.04</ele><time>2026-09-16T09:52:57Z</time></trkpt><trkpt lat="53.5827789176" lon="10.0232197903"><ele>29999.04</ele><time>2026-09-16T09:53:05Z</time></trkpt><trkpt lat="53.5828740522" lon="10.0234914478"><ele>29999.04</ele><time>2026-09-16T09:53:13Z</time></trkpt><trkpt lat="53.5829802509" lon="10.0237812102"><ele>29999.04</ele><time>2026-09-16T09:53:22Z</time></trkpt><trkpt lat="53.5830625612" lon="10.0240916759"><ele>29999.04</ele><time>2026-09-16T09:53:31Z</time></trkpt><trkpt lat="53.5831420217" lon="10.0243853778"><ele>29999.04</ele><time>2026-09-16T09:53:39Z</time></trkpt><trkpt lat="53.5832395870" lon="10.0246816780"><ele>29999.04</ele><time>2026-09-16T09:53:48Z</time></trkpt><trkpt lat="53.5833175387" lon="10.0249659922"><ele>29999.04</ele><time>2026-09-16T09:53:56Z</time></trkpt><trkpt lat="53.5834150203" lon="10.0252797268"><ele>29999.04</ele><time>2026-09-16T09:54:05Z</time></trkpt><trkpt lat="53.5834963247" lon="10.0255673937"><ele>29999.04</ele><time>2026-09-16T09:54:13Z</time></trkpt><trkpt lat="53.5835894477" lon="10.0258487742"><ele>29999.04</ele><time>2026-09-16T09:54:21Z</time></trkpt><trkpt lat="53.5836852528" lon="10.0261221919"><ele>29999.04</ele><time>2026-09-16T09:54:29Z</time></trkpt><trkpt lat="53.5837878473" lon="10.0264316518"><ele>29999.04</ele><time>2026-09-16T09:54:38Z</time></trkpt><trkpt lat="53.5838882625" lon="10.0267181452"><ele>29999.04</ele><time>2026-09-16T09:54:53Z</time></trkpt><trkpt lat="53.5839859955" lon="10.0270012859"><ele>29999.04</ele><time>2026-09-16T09:55:04Z</time></trkpt><trkpt lat="53.5840803757" lon="10.0272917189"><ele>29999.04</ele><time>2026-09-16T09:55:12Z</time></trkpt><trkpt lat="53.5841521248" lon="10.0276151765"><ele>29999.04</ele><time>2026-09-16T09:55:20Z</time></trkpt><trkpt lat="53.5842030868" lon="10.0279355329"><ele>29999.04</ele><time>2026-09-16T09:55:28Z</time></trkpt><trkpt lat="53.5842475109" lon="10.0282465853"><ele>29999.04</ele><time>2026-09-16T09:55:36Z</time></trkpt><trkpt lat="53.5842739977" lon="10.0285786763"><ele>29999.04</ele><time>2026-09-16T09:55:44Z</time></trkpt><trkpt lat="53.5843031667" lon="10.0288982783"><ele>29999.04</ele><time>2026-09-16T09:55:52Z</time></trkpt><trkpt lat="53.5843536258" lon="10.0292194728"><ele>29999.04</ele><time>2026-09-16T09:56:00Z</time></trkpt><trkpt lat="53.5844055936" lon="10.0295316149"><ele>29999.04</ele><time>2026-09-16T09:56:08Z</time></trkpt><trkpt lat="53.5844361037" lon="10.0298413262"><ele>29999.04</ele><time>2026-09-16T09:56:16Z</time></trkpt><trkpt lat="53.5844749119" lon="10.0301678013"><ele>29999.04</ele><time>2026-09-16T09:56:24Z</time></trkpt><trkpt lat="53.5845187493" lon="10.0304974616"><ele>29999.04</ele><time>2026-09-16T09:56:32Z</time></trkpt><trkpt lat="53.5845727287" lon="10.0307988748"><ele>29999.04</ele><time>2026-09-16T09:56:40Z</time></trkpt><trkpt lat="53.5846267920" lon="10.0311074965"><ele>29999.04</ele><time>2026-09-16T09:56:48Z</time></trkpt><trkpt lat="53.5846992955" lon="10.0313950796"><ele>29999.04</ele><time>2026-09-16T09:56:56Z</time></trkpt><trkpt lat="53.5847730562" lon="10.0316721015"><ele>29999.04</ele><time>2026-09-16T09:57:06Z</time></trkpt><trkpt lat="53.5847874731" lon="10.0317581836"><ele>29999.04</ele><time>2026-09-16T09:57:31Z</time></trkpt><trkpt lat="53.5847873054" lon="10.0317572616"><ele>29999.04</ele><time>2026-09-16T09:57:34Z</time></trkpt><trkpt lat="53.5847871378" lon="10.0317573454"><ele>29999.04</ele><time>2026-09-16T09:57:39Z</time></trkpt></trkseg></trk></gpx>