<?xml version="1.0" encoding="UTF-8" standalone="no" ?><gpx xmlns="http://www.topografix.com/GPX/1/1" xmlns:gpxx="http://www.garmin.com/xmlschemas/GpxExtensions/v3" xmlns:gpxtrkx="http://www.garmin.com/xmlschemas/TrackStatsExtension/v1" xmlns:wptx1="http://www.garmin.com/xmlschemas/WaypointExtension/v1" xmlns:gpxtpx="http://www.garmin.com/xmlschemas/TrackPointExtension/v1" creator="Foretrex" version="1.1" xmlns:xsi="http://www.w3.org/2001/XMLSchema-instance" xsi:schemaLocation="http://www.topografix.com/GPX/1/1 http://www.topografix.com/GPX/1/1/gpx.xsd http://www.garmin.com/xmlschemas/GpxExtensions/v3 http://www8.garmin.com/xmlschemas/GpxExtensionsv3.xsd http://www.garmin.com/xmlschemas/TrackStatsExtension/v1 http://www8.garmin.com/xmlschemas/TrackStatsExtension.xsd http://www.garmin.com/xmlschemas/WaypointExtension/v1 http://www8.garmin.com/xmlschemas/WaypointExtensionv1.xsd http://www.garmin.com/xmlschemas/TrackPointExtension/v1 http://www.garmin.com/xmlschemas/TrackPointExtensionv1.xsd"><metadata><link href="http://www.garmin.com"><text>Garmin International</text></link><time>2026-09-17T17:08:32Z</time></metadata><trk><name>17-SEP-26A</name><extensions><gpxx:TrackExtension><gpxx:DisplayColor>Black</gpxx:DisplayColor></gpxx:TrackExtension></extensions><trkseg><trkpt lat="53.5848653410" lon="10.0319263246"><ele>29999.04</ele><time>2026-09-17T09:10:20Z</time></trkpt><trkpt lat="53.5847530235" lon="10.0316862669"><ele>29999.04</ele><time>2026-09-17T09:13:11Z</time></trkpt><trkpt lat="53.5846751556" lon="10.0313929003"><ele>29999.04</ele><time>2026-09-17T09:13:20Z</time></trkpt><trkpt lat="53.5845984612" lon="10.0311171357"><ele>29999.04</ele><time>2026-09-17T09:13:28Z</time></trkpt><trkpt lat="53.5845500138" lon="10.0308234338"><ele>29999.04</ele><time>2026-09-17T09:13:36Z</time></trkpt><trkpt lat="53.5845134687" lon="10.0305199251"><ele>29999.04</ele><time>2026-09-17T09:13:44Z</time></trkpt><trkpt lat="53.5844770074" lon="10.0301976409"><ele>29999.04</ele><time>2026-09-17T09:13:53Z</time></trkpt><trkpt lat="53.5844503529" lon="10.0298778713"><ele>29999.04</ele><time>2026-09-17T09:14:02Z</time></trkpt><trkpt lat="53.5844290629" lon="10.0295287650"><ele>29999.04</ele><time>2026-09-17T09:14:11Z</time></trkpt><trkpt lat="53.5844068509" lon="10.0292193890"><ele>29999.04</ele><time>2026-09-17T09:14:19Z</time></trkpt><trkpt lat="53.5843755864" lon="10.0289114378"><ele>29999.04</ele><time>2026-09-17T09:14:27Z</time></trkpt><trkpt lat="53.5843510274" lon="10.0285861362"><ele>29999.04</ele><time>2026-09-17T09:14:36Z</time></trkpt><trkpt lat="53.5843433999" lon="10.0282579008"><ele>29999.04</ele><time>2026-09-17T09:14:45Z</time></trkpt><trkpt lat="53.5842962097" lon="10.0279498659"><ele>29999.04</ele><time>2026-09-17T09:14:54Z</time></trkpt><trkpt lat="53.5842321720" lon="10.0276256539"><ele>29999.04</ele><time>2026-09-17T09:15:03Z</time></trkpt><trkpt lat="53.5842141509" lon="10.0273008551"><ele>29999.04</ele><time>2026-09-17T09:15:12Z</time></trkpt><trkpt lat="53.5841332655" lon="10.0269789062"><ele>29999.04</ele><time>2026-09-17T09:15:21Z</time></trkpt><trkpt lat="53.5840422381" lon="10.0266669318"><ele>29999.04</ele><time>2026-09-17T09:15:30Z</time></trkpt><trkpt lat="53.5839475226" lon="10.0263774209"><ele>29999.04</ele><time>2026-09-17T09:15:39Z</time></trkpt><trkpt lat="53.5838564113" lon="10.0260838028"><ele>29999.04</ele><time>2026-09-17T09:15:48Z</time></trkpt><trkpt lat="53.5837430879" lon="10.0258212816"><ele>29999.04</ele><time>2026-09-17T09:15:57Z</time></trkpt><trkpt lat="53.5836378951" lon="10.0255544856"><ele>29999.04</ele><time>2026-09-17T09:16:06Z</time></trkpt><trkpt lat="53.5835185368" lon="10.0252812356"><ele>29999.04</ele><time>2026-09-17T09:16:15Z</time></trkpt><trkpt lat="53.5834024474" lon="10.0250147749"><ele>29999.04</ele><time>2026-09-17T09:16:24Z</time></trkpt><trkpt lat="53.5832951590" lon="10.0247269403"><ele>29999.04</ele><time>2026-09-17T09:16:33Z</time></trkpt><trkpt lat="53.5831959173" lon="10.0244312268"><ele>29999.04</ele><time>2026-09-17T09:16:42Z</time></trkpt><trkpt lat="53.5830882099" lon="10.0241594855"><ele>29999.04</ele><time>2026-09-17T09:16:51Z</time></trkpt><trkpt lat="53.5829983559" lon="10.0238656998"><ele>29999.04</ele><time>2026-09-17T09:17:00Z</time></trkpt><trkpt lat="53.5829017125" lon="10.0235757697"><ele>29999.04</ele><time>2026-09-17T09:17:09Z</time></trkpt><trkpt lat="53.5828191508" lon="10.0232904498"><ele>29999.04</ele><time>2026-09-17T09:17:18Z</time></trkpt><trkpt lat="53.5827456415" lon="10.0230026152"><ele>29999.04</ele><time>2026-09-17T09:17:27Z</time></trkpt><trkpt lat="53.5826543625" lon="10.0227082428"><ele>29999.04</ele><time>2026-09-17T09:17:36Z</time></trkpt><trkpt lat="53.5825847089" lon="10.0224022195"><ele>29999.04</ele><time>2026-09-17T09:17:45Z</time></trkpt><trkpt lat="53.5825280473" lon="10.0221001357"><ele>29999.04</ele><time>2026-09-17T09:17:54Z</time></trkpt><trkpt lat="53.5824780073" lon="10.0217738282"><ele>29999.04</ele><time>2026-09-17T09:18:03Z</time></trkpt><trkpt lat="53.5824317392" lon="10.0214691460"><ele>29999.04</ele><time>2026-09-17T09:18:12Z</time></trkpt><trkpt lat="53.5823948588" lon="10.0211502146"><ele>29999.04</ele><time>2026-09-17T09:18:21Z</time></trkpt><trkpt lat="53.5823509376" lon="10.0208412576"><ele>29999.04</ele><time>2026-09-17T09:18:30Z</time></trkpt><trkpt lat="53.5823023226" lon="10.0205067359"><ele>29999.04</ele><time>2026-09-17T09:18:39Z</time></trkpt><trkpt lat="53.5822858103" lon="10.0201441348"><ele>29999.04</ele><time>2026-09-17T09:18:48Z</time></trkpt><trkpt lat="53.5822077747" lon="10.0198436435"><ele>29999.04</ele><time>2026-09-17T09:18:57Z</time></trkpt><trkpt lat="53.5821216088" lon="10.0195739977"><ele>29999.04</ele><time>2026-09-17T09:19:12Z</time></trkpt><trkpt lat="53.5820930265" lon="10.0190291740"><ele>29999.04</ele><time>2026-09-17T09:19:21Z</time></trkpt><trkpt lat="53.5820227861" lon="10.0186936464"><ele>29999.04</ele><time>2026-09-17T09:19:30Z</time></trkpt><trkpt lat="53.5819881689" lon="10.0183439534"><ele>29999.04</ele><time>2026-09-17T09:19:39Z</time></trkpt><trkpt lat="53.5819496959" lon="10.0180278718"><ele>29999.04</ele><time>2026-09-17T09:19:47Z</time></trkpt><trkpt lat="53.5818805452" lon="10.0177049171"><ele>29999.04</ele><time>2026-09-17T09:19:56Z</time></trkpt><trkpt lat="53.5818323493" lon="10.0173985586"><ele>29999.04</ele><time>2026-09-17T09:20:05Z</time></trkpt><trkpt lat="53.5818030965" lon="10.0170767773"><ele>29999.04</ele><time>2026-09-17T09:20:14Z</time></trkpt><trkpt lat="53.5817588400" lon="10.0167420879"><ele>29999.04</ele><time>2026-09-17T09:20:23Z</time></trkpt><trkpt lat="53.5817190260" lon="10.0164420996"><ele>29999.04</ele><time>2026-09-17T09:20:31Z</time></trkpt><trkpt lat="53.5816528928" lon="10.0161588751"><ele>29999.04</ele><time>2026-09-17T09:20:39Z</time></trkpt><trkpt lat="53.5815559141" lon="10.0158611499"><ele>29999.04</ele><time>2026-09-17T09:20:48Z</time></trkpt><trkpt lat="53.5814715922" lon="10.0155710522"><ele>29999.04</ele><time>2026-09-17T09:20:57Z</time></trkpt><trkpt lat="53.5813629627" lon="10.0153180864"><ele>29999.04</ele><time>2026-09-17T09:21:06Z</time></trkpt><trkpt lat="53.5812601168" lon="10.0150394719"><ele>29999.04</ele><time>2026-09-17T09:21:15Z</time></trkpt><trkpt lat="53.5811385792" lon="10.0147792138"><ele>29999.04</ele><time>2026-09-17T09:21:24Z</time></trkpt><trkpt lat="53.5809917282" lon="10.0145508908"><ele>29999.04</ele><time>2026-09-17T09:21:33Z</time></trkpt><trkpt lat="53.5808406025" lon="10.0143302791"><ele>29999.04</ele><time>2026-09-17T09:21:42Z</time></trkpt><trkpt lat="53.5806877166" lon="10.0141525827"><ele>29999.04</ele><time>2026-09-17T09:21:51Z</time></trkpt><trkpt lat="53.5805268679" lon="10.0139748026"><ele>29999.04</ele><time>2026-09-17T09:22:00Z</time></trkpt><trkpt lat="53.5803485010" lon="10.0138297118"><ele>29999.04</ele><time>2026-09-17T09:22:09Z</time></trkpt><trkpt lat="53.5801669490" lon="10.0137002952"><ele>29999.04</ele><time>2026-09-17T09:22:18Z</time></trkpt><trkpt lat="53.5799802840" lon="10.0136007182"><ele>29999.04</ele><time>2026-09-17T09:22:27Z</time></trkpt><trkpt lat="53.5798007436" lon="10.0134818628"><ele>29999.04</ele><time>2026-09-17T09:22:36Z</time></trkpt><trkpt lat="53.5795870889" lon="10.0133752450"><ele>29999.04</ele><time>2026-09-17T09:22:46Z</time></trkpt><trkpt lat="53.5794084705" lon="10.0132538751"><ele>29999.04</ele><time>2026-09-17T09:22:59Z</time></trkpt><trkpt lat="53.5792024434" lon="10.0130019989"><ele>29999.04</ele><time>2026-09-17T09:23:08Z</time></trkpt><trkpt lat="53.5790403374" lon="10.0128026772"><ele>29999.04</ele><time>2026-09-17T09:23:17Z</time></trkpt><trkpt lat="53.5790246632" lon="10.0125048682"><ele>29999.04</ele><time>2026-09-17T09:23:29Z</time></trkpt><trkpt lat="53.5792488791" lon="10.0123869348"><ele>29999.04</ele><time>2026-09-17T09:23:42Z</time></trkpt><trkpt lat="53.5794792138" lon="10.0122341327"><ele>29999.04</ele><time>2026-09-17T09:23:56Z</time></trkpt><trkpt lat="53.5797108896" lon="10.0120576937"><ele>29999.04</ele><time>2026-09-17T09:24:07Z</time></trkpt><trkpt lat="53.5799480136" lon="10.0118231680"><ele>29999.04</ele><time>2026-09-17T09:24:18Z</time></trkpt><trkpt lat="53.5801321641" lon="10.0116697792"><ele>29999.04</ele><time>2026-09-17T09:24:27Z</time></trkpt><trkpt lat="53.5803226847" lon="10.0115151331"><ele>29999.04</ele><time>2026-09-17T09:24:38Z</time></trkpt><trkpt lat="53.5805506725" lon="10.0113334972"><ele>29999.04</ele><time>2026-09-17T09:24:49Z</time></trkpt><trkpt lat="53.5807588790" lon="10.0111262966"><ele>29999.04</ele><time>2026-09-17T09:24:59Z</time></trkpt><trkpt lat="53.5809444543" lon="10.0109694712"><ele>29999.04</ele><time>2026-09-17T09:25:08Z</time></trkpt><trkpt lat="53.5811234917" lon="10.0108097121"><ele>29999.04</ele><time>2026-09-17T09:25:18Z</time></trkpt><trkpt lat="53.5813353863" lon="10.0107069500"><ele>29999.04</ele><time>2026-09-17T09:25:30Z</time></trkpt><trkpt lat="53.5815558303" lon="10.0105715822"><ele>29999.04</ele><time>2026-09-17T09:25:40Z</time></trkpt><trkpt lat="53.5817661323" lon="10.0102996733"><ele>29999.04</ele><time>2026-09-17T09:25:53Z</time></trkpt><trkpt lat="53.5819595866" lon="10.0101004355"><ele>29999.04</ele><time>2026-09-17T09:26:03Z</time></trkpt><trkpt lat="53.5821703915" lon="10.0099547580"><ele>29999.04</ele><time>2026-09-17T09:26:12Z</time></trkpt><trkpt lat="53.5823697131" lon="10.0098151155"><ele>29999.04</ele><time>2026-09-17T09:26:21Z</time></trkpt><trkpt lat="53.5825648438" lon="10.0097131077"><ele>29999.04</ele><time>2026-09-17T09:26:30Z</time></trkpt><trkpt lat="53.5827286262" lon="10.0094815157"><ele>29999.04</ele><time>2026-09-17T09:26:40Z</time></trkpt><trkpt lat="53.5829034727" lon="10.0093571283"><ele>29999.04</ele><time>2026-09-17T09:26:49Z</time></trkpt><trkpt lat="53.5831162054" lon="10.0092199165"><ele>29999.04</ele><time>2026-09-17T09:26:58Z</time></trkpt><trkpt lat="53.5832858551" lon="10.0090760831"><ele>29999.04</ele><time>2026-09-17T09:27:08Z</time></trkpt><trkpt lat="53.5834803153" lon="10.0089304056"><ele>29999.04</ele><time>2026-09-17T09:27:20Z</time></trkpt><trkpt lat="53.5836810619" lon="10.0087629352"><ele>29999.04</ele><time>2026-09-17T09:27:32Z</time></trkpt><trkpt lat="53.5839476064" lon="10.0085862447"><ele>29999.04</ele><time>2026-09-17T09:27:46Z</time></trkpt><trkpt lat="53.5840816330" lon="10.0082383119"><ele>29999.04</ele><time>2026-09-17T09:28:01Z</time></trkpt><trkpt lat="53.5839523841" lon="10.0080120843"><ele>29999.04</ele><time>2026-09-17T09:28:26Z</time></trkpt><trkpt lat="53.5839028470" lon="10.0076712761"><ele>29999.04</ele><time>2026-09-17T09:28:38Z</time></trkpt><trkpt lat="53.5838573333" lon="10.0071805157"><ele>29999.04</ele><time>2026-09-17T09:28:51Z</time></trkpt><trkpt lat="53.5837979894" lon="10.0068620872"><ele>29999.04</ele><time>2026-09-17T09:29:03Z</time></trkpt><trkpt lat="53.5836918745" lon="10.0065860711"><ele>29999.04</ele><time>2026-09-17T09:29:21Z</time></trkpt><trkpt lat="53.5836304352" lon="10.0062685646"><ele>29999.04</ele><time>2026-09-17T09:29:32Z</time></trkpt><trkpt lat="53.5835216381" lon="10.0059911236"><ele>29999.04</ele><time>2026-09-17T09:29:42Z</time></trkpt><trkpt lat="53.5833751224" lon="10.0057105813"><ele>29999.04</ele><time>2026-09-17T09:29:54Z</time></trkpt><trkpt lat="53.5832690075" lon="10.0053767301"><ele>29999.04</ele><time>2026-09-17T09:30:11Z</time></trkpt><trkpt lat="53.5831696820" lon="10.0050519314"><ele>29999.04</ele><time>2026-09-17T09:30:41Z</time></trkpt><trkpt lat="53.5830542631" lon="10.0047617499"><ele>29999.04</ele><time>2026-09-17T09:31:04Z</time></trkpt><trkpt lat="53.5830008704" lon="10.0044465065"><ele>29999.04</ele><time>2026-09-17T09:31:14Z</time></trkpt><trkpt lat="53.5829183087" lon="10.0041082967"><ele>29999.04</ele><time>2026-09-17T09:31:24Z</time></trkpt><trkpt lat="53.5828197375" lon="10.0037629623"><ele>29999.04</ele><time>2026-09-17T09:31:35Z</time></trkpt><trkpt lat="53.5827429593" lon="10.0033943262"><ele>29999.04</ele><time>2026-09-17T09:31:46Z</time></trkpt><trkpt lat="53.5826915782" lon="10.0030288752"><ele>29999.04</ele><time>2026-09-17T09:31:56Z</time></trkpt><trkpt lat="53.5826979484" lon="10.0026834570"><ele>29999.04</ele><time>2026-09-17T09:32:07Z</time></trkpt><trkpt lat="53.5827665124" lon="10.0023545511"><ele>29999.04</ele><time>2026-09-17T09:32:17Z</time></trkpt><trkpt lat="53.5829390120" lon="10.0022112206"><ele>29999.04</ele><time>2026-09-17T09:32:27Z</time></trkpt><trkpt lat="53.5831275210" lon="10.0021473505"><ele>29999.04</ele><time>2026-09-17T09:32:37Z</time></trkpt><trkpt lat="53.5833287705" lon="10.0020854082"><ele>29999.04</ele><time>2026-09-17T09:32:47Z</time></trkpt><trkpt lat="53.5835262481" lon="10.0020275731"><ele>29999.04</ele><time>2026-09-17T09:32:57Z</time></trkpt><trkpt lat="53.5837168526" lon="10.0019770302"><ele>29999.04</ele><time>2026-09-17T09:33:06Z</time></trkpt><trkpt lat="53.5839067027" lon="10.0019759405"><ele>29999.04</ele><time>2026-09-17T09:33:15Z</time></trkpt><trkpt lat="53.5841062758" lon="10.0019556563"><ele>29999.04</ele><time>2026-09-17T09:33:25Z</time></trkpt><trkpt lat="53.5842874087" lon="10.0019239727"><ele>29999.04</ele><time>2026-09-17T09:33:34Z</time></trkpt><trkpt lat="53.5844711401" lon="10.0018630363"><ele>29999.04</ele><time>2026-09-17T09:33:43Z</time></trkpt><trkpt lat="53.5846405383" lon="10.0017151795"><ele>29999.04</ele><time>2026-09-17T09:33:52Z</time></trkpt><trkpt lat="53.5846871417" lon="10.0014420133"><ele>29999.04</ele><time>2026-09-17T09:34:12Z</time></trkpt><trkpt lat="53.5846016463" lon="10.0011438690"><ele>29999.04</ele><time>2026-09-17T09:34:24Z</time></trkpt><trkpt lat="53.5845338367" lon="10.0008285418"><ele>29999.04</ele><time>2026-09-17T09:34:33Z</time></trkpt><trkpt lat="53.5844704695" lon="10.0005434733"><ele>29999.04</ele><time>2026-09-17T09:34:42Z</time></trkpt><trkpt lat="53.5844347626" lon="10.0001952890"><ele>29999.04</ele><time>2026-09-17T09:34:53Z</time></trkpt><trkpt lat="53.5844169930" lon="9.9998545647"><ele>29999.04</ele><time>2026-09-17T09:35:03Z</time></trkpt><trkpt lat="53.5843631811" lon="9.9995067157"><ele>29999.04</ele><time>2026-09-17T09:35:12Z</time></trkpt><trkpt lat="53.5842654482" lon="9.9992229044"><ele>29999.04</ele><time>2026-09-17T09:35:21Z</time></trkpt><trkpt lat="53.5842217784" lon="9.9989261851"><ele>29999.04</ele><time>2026-09-17T09:35:30Z</time></trkpt><trkpt lat="53.5843154881" lon="9.9986346625"><ele>29999.04</ele><time>2026-09-17T09:35:41Z</time></trkpt><trkpt lat="53.5845274664" lon="9.9984238576"><ele>29999.04</ele><time>2026-09-17T09:35:53Z</time></trkpt><trkpt lat="53.5847645067" lon="9.9981003162"><ele>29999.04</ele><time>2026-09-17T09:36:08Z</time></trkpt><trkpt lat="53.5850019660" lon="9.9979136512"><ele>29999.04</ele><time>2026-09-17T09:36:18Z</time></trkpt><trkpt lat="53.5851683468" lon="9.9979309179"><ele>29999.04</ele><time>2026-09-17T09:36:27Z</time></trkpt><trkpt lat="53.5853434447" lon="9.9979781080"><ele>29999.04</ele><time>2026-09-17T09:36:36Z</time></trkpt><trkpt lat="53.5855249129" lon="9.9980688002"><ele>29999.04</ele><time>2026-09-17T09:36:45Z</time></trkpt><trkpt lat="53.5857326165" lon="9.9981450755"><ele>29999.04</ele><time>2026-09-17T09:36:55Z</time></trkpt><trkpt lat="53.5859339498" lon="9.9981900863"><ele>29999.04</ele><time>2026-09-17T09:37:04Z</time></trkpt><trkpt lat="53.5861136578" lon="9.9982960336"><ele>29999.04</ele><time>2026-09-17T09:37:13Z</time></trkpt><trkpt lat="53.5863139015" lon="9.9983564671"><ele>29999.04</ele><time>2026-09-17T09:37:23Z</time></trkpt><trkpt lat="53.5865170788" lon="9.9984004721"><ele>29999.04</ele><time>2026-09-17T09:37:32Z</time></trkpt><trkpt lat="53.5867225192" lon="9.9984522723"><ele>29999.04</ele><time>2026-09-17T09:37:42Z</time></trkpt><trkpt lat="53.5869317316" lon="9.9985336605"><ele>29999.04</ele><time>2026-09-17T09:37:52Z</time></trkpt><trkpt lat="53.5871297959" lon="9.9986013863"><ele>29999.04</ele><time>2026-09-17T09:38:02Z</time></trkpt><trkpt lat="53.5873269383" lon="9.9986577965"><ele>29999.04</ele><time>2026-09-17T09:38:12Z</time></trkpt><trkpt lat="53.5875421856" lon="9.9987359997"><ele>29999.04</ele><time>2026-09-17T09:38:22Z</time></trkpt><trkpt lat="53.5877473745" lon="9.9988175556"><ele>29999.04</ele><time>2026-09-17T09:38:32Z</time></trkpt><trkpt lat="53.5879350454" lon="9.9988376722"><ele>29999.04</ele><time>2026-09-17T09:38:43Z</time></trkpt><trkpt lat="53.5881855804" lon="9.9989769794"><ele>29999.04</ele><time>2026-09-17T09:38:55Z</time></trkpt><trkpt lat="53.5883860756" lon="9.9990511592"><ele>29999.04</ele><time>2026-09-17T09:39:06Z</time></trkpt><trkpt lat="53.5886206850" lon="9.9991121795"><ele>29999.04</ele><time>2026-09-17T09:39:17Z</time></trkpt><trkpt lat="53.5888327472" lon="9.9991735350"><ele>29999.04</ele><time>2026-09-17T09:39:27Z</time></trkpt><trkpt lat="53.5890352540" lon="9.9992669094"><ele>29999.04</ele><time>2026-09-17T09:39:37Z</time></trkpt><trkpt lat="53.5892348271" lon="9.9993385747"><ele>29999.04</ele><time>2026-09-17T09:39:47Z</time></trkpt><trkpt lat="53.5894411057" lon="9.9993619602"><ele>29999.04</ele><time>2026-09-17T09:39:57Z</time></trkpt><trkpt lat="53.5896215681" lon="9.9993761256"><ele>29999.04</ele><time>2026-09-17T09:40:07Z</time></trkpt><trkpt lat="53.5898239911" lon="9.9992948212"><ele>29999.04</ele><time>2026-09-17T09:40:16Z</time></trkpt><trkpt lat="53.5900064651" lon="9.9991824199"><ele>29999.04</ele><time>2026-09-17T09:40:25Z</time></trkpt><trkpt lat="53.5902037751" lon="9.9990266003"><ele>29999.04</ele><time>2026-09-17T09:40:37Z</time></trkpt><trkpt lat="53.5904527176" lon="9.9988992792"><ele>29999.04</ele><time>2026-09-17T09:40:51Z</time></trkpt><trkpt lat="53.5906573199" lon="9.9987955950"><ele>29999.04</ele><time>2026-09-17T09:41:00Z</time></trkpt><trkpt lat="53.5908684600" lon="9.9986696150"><ele>29999.04</ele><time>2026-09-17T09:41:10Z</time></trkpt><trkpt lat="53.5910925921" lon="9.9985434674"><ele>29999.04</ele><time>2026-09-17T09:41:21Z</time></trkpt><trkpt lat="53.5912988707" lon="9.9984215107"><ele>29999.04</ele><time>2026-09-17T09:41:32Z</time></trkpt><trkpt lat="53.5914929118" lon="9.9982736539"><ele>29999.04</ele><time>2026-09-17T09:41:42Z</time></trkpt><trkpt lat="53.5916818399" lon="9.9980765115"><ele>29999.04</ele><time>2026-09-17T09:41:52Z</time></trkpt><trkpt lat="53.5918421857" lon="9.9978924450"><ele>29999.04</ele><time>2026-09-17T09:42:02Z</time></trkpt><trkpt lat="53.5919931438" lon="9.9976868369"><ele>29999.04</ele><time>2026-09-17T09:42:11Z</time></trkpt><trkpt lat="53.5921185371" lon="9.9974576756"><ele>29999.04</ele><time>2026-09-17T09:42:20Z</time></trkpt><trkpt lat="53.5922705848" lon="9.9972453620"><ele>29999.04</ele><time>2026-09-17T09:42:31Z</time></trkpt><trkpt lat="53.5924336128" lon="9.9969955813"><ele>29999.04</ele><time>2026-09-17T09:42:42Z</time></trkpt><trkpt lat="53.5925661307" lon="9.9967335630"><ele>29999.04</ele><time>2026-09-17T09:42:52Z</time></trkpt><trkpt lat="53.5927170888" lon="9.9965324812"><ele>29999.04</ele><time>2026-09-17T09:43:02Z</time></trkpt><trkpt lat="53.5928750876" lon="9.9962987937"><ele>29999.04</ele><time>2026-09-17T09:43:14Z</time></trkpt><trkpt lat="53.5930505209" lon="9.9960232805"><ele>29999.04</ele><time>2026-09-17T09:43:27Z</time></trkpt><trkpt lat="53.5931967013" lon="9.9956786167"><ele>29999.04</ele><time>2026-09-17T09:43:38Z</time></trkpt><trkpt lat="53.5931708012" lon="9.9953327794"><ele>29999.04</ele><time>2026-09-17T09:43:49Z</time></trkpt><trkpt lat="53.5930273868" lon="9.9951155204"><ele>29999.04</ele><time>2026-09-17T09:43:59Z</time></trkpt><trkpt lat="53.5928727407" lon="9.9949241616"><ele>29999.04</ele><time>2026-09-17T09:44:10Z</time></trkpt><trkpt lat="53.5927152447" lon="9.9947157037"><ele>29999.04</ele><time>2026-09-17T09:44:22Z</time></trkpt><trkpt lat="53.5925208684" lon="9.9947136082"><ele>29999.04</ele><time>2026-09-17T09:44:38Z</time></trkpt><trkpt lat="53.5923631210" lon="9.9949193839"><ele>29999.04</ele><time>2026-09-17T09:44:49Z</time></trkpt><trkpt lat="53.5922199581" lon="9.9951318651"><ele>29999.04</ele><time>2026-09-17T09:44:58Z</time></trkpt><trkpt lat="53.5920854285" lon="9.9953633733"><ele>29999.04</ele><time>2026-09-17T09:45:08Z</time></trkpt><trkpt lat="53.5919388290" lon="9.9956523813"><ele>29999.04</ele><time>2026-09-17T09:45:19Z</time></trkpt><trkpt lat="53.5917624738" lon="9.9958765972"><ele>29999.04</ele><time>2026-09-17T09:45:28Z</time></trkpt><trkpt lat="53.5916006193" lon="9.9960417207"><ele>29999.04</ele><time>2026-09-17T09:45:37Z</time></trkpt><trkpt lat="53.5914580431" lon="9.9962474965"><ele>29999.04</ele><time>2026-09-17T09:45:46Z</time></trkpt><trkpt lat="53.5913204961" lon="9.9964602292"><ele>29999.04</ele><time>2026-09-17T09:45:55Z</time></trkpt><trkpt lat="53.5911675263" lon="9.9966507498"><ele>29999.04</ele><time>2026-09-17T09:46:04Z</time></trkpt><trkpt lat="53.5910029057" lon="9.9968238361"><ele>29999.04</ele><time>2026-09-17T09:46:13Z</time></trkpt><trkpt lat="53.5908292327" lon="9.9969454575"><ele>29999.04</ele><time>2026-09-17T09:46:22Z</time></trkpt><trkpt lat="53.5906290729" lon="9.9970367365"><ele>29999.04</ele><time>2026-09-17T09:46:32Z</time></trkpt><trkpt lat="53.5904394742" lon="9.9971470423"><ele>29999.04</ele><time>2026-09-17T09:46:42Z</time></trkpt><trkpt lat="53.5902592633" lon="9.9972294364"><ele>29999.04</ele><time>2026-09-17T09:46:52Z</time></trkpt><trkpt lat="53.5900566727" lon="9.9972705077"><ele>29999.04</ele><time>2026-09-17T09:47:01Z</time></trkpt><trkpt lat="53.5898747854" lon="9.9973048735"><ele>29999.04</ele><time>2026-09-17T09:47:10Z</time></trkpt><trkpt lat="53.5896975920" lon="9.9973592721"><ele>29999.04</ele><time>2026-09-17T09:47:19Z</time></trkpt><trkpt lat="53.5895100050" lon="9.9973778799"><ele>29999.04</ele><time>2026-09-17T09:47:28Z</time></trkpt><trkpt lat="53.5893155448" lon="9.9973902851"><ele>29999.04</ele><time>2026-09-17T09:47:37Z</time></trkpt><trkpt lat="53.5891265329" lon="9.9974062108"><ele>29999.04</ele><time>2026-09-17T09:47:46Z</time></trkpt><trkpt lat="53.5889397841" lon="9.9974055402"><ele>29999.04</ele><time>2026-09-17T09:47:55Z</time></trkpt><trkpt lat="53.5887409654" lon="9.9973824900"><ele>29999.04</ele><time>2026-09-17T09:48:05Z</time></trkpt><trkpt lat="53.5885575693" lon="9.9973135069"><ele>29999.04</ele><time>2026-09-17T09:48:15Z</time></trkpt><trkpt lat="53.5883800406" lon="9.9972591922"><ele>29999.04</ele><time>2026-09-17T09:48:25Z</time></trkpt><trkpt lat="53.5881733429" lon="9.9972041231"><ele>29999.04</ele><time>2026-09-17T09:48:36Z</time></trkpt><trkpt lat="53.5879727639" lon="9.9971377384"><ele>29999.04</ele><time>2026-09-17T09:48:46Z</time></trkpt><trkpt lat="53.5877788067" lon="9.9970764667"><ele>29999.04</ele><time>2026-09-17T09:48:56Z</time></trkpt><trkpt lat="53.5875879508" lon="9.9969974253"><ele>29999.04</ele><time>2026-09-17T09:49:06Z</time></trkpt><trkpt lat="53.5874126013" lon="9.9969247542"><ele>29999.04</ele><time>2026-09-17T09:49:15Z</time></trkpt><trkpt lat="53.5872183088" lon="9.9968421087"><ele>29999.04</ele><time>2026-09-17T09:49:25Z</time></trkpt><trkpt lat="53.5870261118" lon="9.9967503268"><ele>29999.04</ele><time>2026-09-17T09:49:35Z</time></trkpt><trkpt lat="53.5868498404" lon="9.9966608081"><ele>29999.04</ele><time>2026-09-17T09:49:44Z</time></trkpt><trkpt lat="53.5866685398" lon="9.9965952616"><ele>29999.04</ele><time>2026-09-17T09:49:53Z</time></trkpt><trkpt lat="53.5864909273" lon="9.9965020549"><ele>29999.04</ele><time>2026-09-17T09:50:02Z</time></trkpt><trkpt lat="53.5863060225" lon="9.9964067526"><ele>29999.04</ele><time>2026-09-17T09:50:12Z</time></trkpt><trkpt lat="53.5861173458" lon="9.9963233527"><ele>29999.04</ele><time>2026-09-17T09:50:22Z</time></trkpt><trkpt lat="53.5859257355" lon="9.9962248653"><ele>29999.04</ele><time>2026-09-17T09:50:32Z</time></trkpt><trkpt lat="53.5857505538" lon="9.9961515237"><ele>29999.04</ele><time>2026-09-17T09:50:41Z</time></trkpt><trkpt lat="53.5855686665" lon="9.9960882403"><ele>29999.04</ele><time>2026-09-17T09:50:50Z</time></trkpt><trkpt lat="53.5853882041" lon="9.9960012361"><ele>29999.04</ele><time>2026-09-17T09:50:59Z</time></trkpt><trkpt lat="53.5852126870" lon="9.9959107954"><ele>29999.04</ele><time>2026-09-17T09:51:08Z</time></trkpt><trkpt lat="53.5850310512" lon="9.9958513677"><ele>29999.04</ele><time>2026-09-17T09:51:17Z</time></trkpt><trkpt lat="53.5848580487" lon="9.9957692251"><ele>29999.04</ele><time>2026-09-17T09:51:26Z</time></trkpt><trkpt lat="53.5846750718" lon="9.9957158323"><ele>29999.04</ele><time>2026-09-17T09:51:35Z</time></trkpt><trkpt lat="53.5844998900" lon="9.9955599289"><ele>29999.04</ele><time>2026-09-17T09:51:45Z</time></trkpt><trkpt lat="53.5843237862" lon="9.9953905307"><ele>29999.04</ele><time>2026-09-17T09:51:55Z</time></trkpt><trkpt lat="53.5841273982" lon="9.9953142554"><ele>29999.04</ele><time>2026-09-17T09:52:05Z</time></trkpt><trkpt lat="53.5839404818" lon="9.9952477030"><ele>29999.04</ele><time>2026-09-17T09:52:14Z</time></trkpt><trkpt lat="53.5837561637" lon="9.9952474516"><ele>29999.04</ele><time>2026-09-17T09:52:23Z</time></trkpt><trkpt lat="53.5835689958" lon="9.9952723458"><ele>29999.04</ele><time>2026-09-17T09:52:35Z</time></trkpt><trkpt lat="53.5833410081" lon="9.9953291751"><ele>29999.04</ele><time>2026-09-17T09:52:45Z</time></trkpt><trkpt lat="53.5831507389" lon="9.9953907821"><ele>29999.04</ele><time>2026-09-17T09:52:55Z</time></trkpt><trkpt lat="53.5829643253" lon="9.9954116531"><ele>29999.04</ele><time>2026-09-17T09:53:04Z</time></trkpt><trkpt lat="53.5827784147" lon="9.9954476953"><ele>29999.04</ele><time>2026-09-17T09:53:13Z</time></trkpt><trkpt lat="53.5825924203" lon="9.9955064524"><ele>29999.04</ele><time>2026-09-17T09:53:22Z</time></trkpt><trkpt lat="53.5824024025" lon="9.9955903552"><ele>29999.04</ele><time>2026-09-17T09:53:31Z</time></trkpt><trkpt lat="53.5822319146" lon="9.9957557302"><ele>29999.04</ele><time>2026-09-17T09:53:40Z</time></trkpt><trkpt lat="53.5820822977" lon="9.9959489331"><ele>29999.04</ele><time>2026-09-17T09:53:49Z</time></trkpt><trkpt lat="53.5819309205" lon="9.9961619172"><ele>29999.04</ele><time>2026-09-17T09:53:58Z</time></trkpt><trkpt lat="53.5817860812" lon="9.9963728897"><ele>29999.04</ele><time>2026-09-17T09:54:07Z</time></trkpt><trkpt lat="53.5816421639" lon="9.9965833593"><ele>29999.04</ele><time>2026-09-17T09:54:16Z</time></trkpt><trkpt lat="53.5814938881" lon="9.9967646599"><ele>29999.04</ele><time>2026-09-17T09:54:25Z</time></trkpt><trkpt lat="53.5813415889" lon="9.9969614670"><ele>29999.04</ele><time>2026-09-17T09:54:34Z</time></trkpt><trkpt lat="53.5811954923" lon="9.9971964955"><ele>29999.04</ele><time>2026-09-17T09:54:43Z</time></trkpt><trkpt lat="53.5810322966" lon="9.9973737728"><ele>29999.04</ele><time>2026-09-17T09:54:52Z</time></trkpt><trkpt lat="53.5808735434" lon="9.9975743517"><ele>29999.04</ele><time>2026-09-17T09:55:01Z</time></trkpt><trkpt lat="53.5807209928" lon="9.9977837317"><ele>29999.04</ele><time>2026-09-17T09:55:10Z</time></trkpt><trkpt lat="53.5805636644" lon="9.9979713187"><ele>29999.04</ele><time>2026-09-17T09:55:19Z</time></trkpt><trkpt lat="53.5804147180" lon="9.9981684610"><ele>29999.04</ele><time>2026-09-17T09:55:28Z</time></trkpt><trkpt lat="53.5802772548" lon="9.9983810261"><ele>29999.04</ele><time>2026-09-17T09:55:37Z</time></trkpt><trkpt lat="53.5801159870" lon="9.9985440541"><ele>29999.04</ele><time>2026-09-17T09:55:46Z</time></trkpt><trkpt lat="53.5799590778" lon="9.9987283722"><ele>29999.04</ele><time>2026-09-17T09:55:55Z</time></trkpt><trkpt lat="53.5798225366" lon="9.9989433680"><ele>29999.04</ele><time>2026-09-17T09:56:04Z</time></trkpt><trkpt lat="53.5797036812" lon="9.9991993513"><ele>29999.04</ele><time>2026-09-17T09:56:13Z</time></trkpt><trkpt lat="53.5795515496" lon="9.9994436000"><ele>29999.04</ele><time>2026-09-17T09:56:22Z</time></trkpt><trkpt lat="53.5794067942" lon="9.9996668939"><ele>29999.04</ele><time>2026-09-17T09:56:31Z</time></trkpt><trkpt lat="53.5792796407" lon="9.9999263976"><ele>29999.04</ele><time>2026-09-17T09:56:40Z</time></trkpt><trkpt lat="53.5791412555" lon="10.0001581572"><ele>29999.04</ele><time>2026-09-17T09:56:49Z</time></trkpt><trkpt lat="53.5790114198" lon="10.0004023220"><ele>29999.04</ele><time>2026-09-17T09:56:58Z</time></trkpt><trkpt lat="53.5788644850" lon="10.0006056670"><ele>29999.04</ele><time>2026-09-17T09:57:07Z</time></trkpt><trkpt lat="53.5787265189" lon="10.0008277036"><ele>29999.04</ele><time>2026-09-17T09:57:16Z</time></trkpt><trkpt lat="53.5785950068" lon="10.0010702759"><ele>29999.04</ele><time>2026-09-17T09:57:25Z</time></trkpt><trkpt lat="53.5784713738" lon="10.0013115909"><ele>29999.04</ele><time>2026-09-17T09:57:34Z</time></trkpt><trkpt lat="53.5783445556" lon="10.0015577674"><ele>29999.04</ele><time>2026-09-17T09:57:43Z</time></trkpt><trkpt lat="53.5782416258" lon="10.0018239766"><ele>29999.04</ele><time>2026-09-17T09:57:52Z</time></trkpt><trkpt lat="53.5781050008" lon="10.0020228792"><ele>29999.04</ele><time>2026-09-17T09:58:01Z</time></trkpt><trkpt lat="53.5779508576" lon="10.0022113044"><ele>29999.04</ele><time>2026-09-17T09:58:10Z</time></trkpt><trkpt lat="53.5777943674" lon="10.0024026632"><ele>29999.04</ele><time>2026-09-17T09:58:19Z</time></trkpt><trkpt lat="53.5776297469" lon="10.0025866460"><ele>29999.04</ele><time>2026-09-17T09:58:28Z</time></trkpt><trkpt lat="53.5774714965" lon="10.0027683657"><ele>29999.04</ele><time>2026-09-17T09:58:37Z</time></trkpt><trkpt lat="53.5773023497" lon="10.0029396918"><ele>29999.04</ele><time>2026-09-17T09:58:47Z</time></trkpt><trkpt lat="53.5771423392" lon="10.0030912366"><ele>29999.04</ele><time>2026-09-17T09:58:57Z</time></trkpt><trkpt lat="53.5769687500" lon="10.0031593814"><ele>29999.04</ele><time>2026-09-17T09:59:07Z</time></trkpt><trkpt lat="53.5768035427" lon="10.0032803323"><ele>29999.04</ele><time>2026-09-17T09:59:17Z</time></trkpt><trkpt lat="53.5766528361" lon="10.0034614652"><ele>29999.04</ele><time>2026-09-17T09:59:27Z</time></trkpt><trkpt lat="53.5765388422" lon="10.0037071388"><ele>29999.04</ele><time>2026-09-17T09:59:36Z</time></trkpt><trkpt lat="53.5764286201" lon="10.0039673969"><ele>29999.04</ele><time>2026-09-17T09:59:45Z</time></trkpt><trkpt lat="53.5763241816" lon="10.0042265654"><ele>29999.04</ele><time>2026-09-17T09:59:54Z</time></trkpt><trkpt lat="53.5762370098" lon="10.0044973008"><ele>29999.04</ele><time>2026-09-17T10:00:04Z</time></trkpt><trkpt lat="53.5761612374" lon="10.0047824532"><ele>29999.04</ele><time>2026-09-17T10:00:14Z</time></trkpt><trkpt lat="53.5761770792" lon="10.0050854590"><ele>29999.04</ele><time>2026-09-17T10:00:32Z</time></trkpt><trkpt lat="53.5762495827" lon="10.0053796638"><ele>29999.04</ele><time>2026-09-17T10:00:42Z</time></trkpt><trkpt lat="53.5762972757" lon="10.0056791492"><ele>29999.04</ele><time>2026-09-17T10:00:52Z</time></trkpt><trkpt lat="53.5764017142" lon="10.0059707556"><ele>29999.04</ele><time>2026-09-17T10:01:01Z</time></trkpt><trkpt lat="53.5764998663" lon="10.0062543154"><ele>29999.04</ele><time>2026-09-17T10:01:09Z</time></trkpt><trkpt lat="53.5766045563" lon="10.0065449160"><ele>29999.04</ele><time>2026-09-17T10:01:17Z</time></trkpt><trkpt lat="53.5767037142" lon="10.0068055093"><ele>29999.04</ele><time>2026-09-17T10:01:24Z</time></trkpt><trkpt lat="53.5767761339" lon="10.0071108621"><ele>29999.04</ele><time>2026-09-17T10:01:31Z</time></trkpt><trkpt lat="53.5768300295" lon="10.0074214954"><ele>29999.04</ele><time>2026-09-17T10:01:38Z</time></trkpt><trkpt lat="53.5768921394" lon="10.0077302009"><ele>29999.04</ele><time>2026-09-17T10:01:46Z</time></trkpt><trkpt lat="53.5769748688" lon="10.0080153532"><ele>29999.04</ele><time>2026-09-17T10:01:54Z</time></trkpt><trkpt lat="53.5770518985" lon="10.0082936324"><ele>29999.04</ele><time>2026-09-17T10:02:02Z</time></trkpt><trkpt lat="53.5771223065" lon="10.0086146593"><ele>29999.04</ele><time>2026-09-17T10:02:11Z</time></trkpt><trkpt lat="53.5771912057" lon="10.0089080259"><ele>29999.04</ele><time>2026-09-17T10:02:19Z</time></trkpt><trkpt lat="53.5772679001" lon="10.0091893226"><ele>29999.04</ele><time>2026-09-17T10:02:27Z</time></trkpt><trkpt lat="53.5773439240" lon="10.0094686076"><ele>29999.04</ele><time>2026-09-17T10:02:35Z</time></trkpt><trkpt lat="53.5774231330" lon="10.0097797439"><ele>29999.04</ele><time>2026-09-17T10:02:44Z</time></trkpt><trkpt lat="53.5775155853" lon="10.0100716855"><ele>29999.04</ele><time>2026-09-17T10:02:53Z</time></trkpt><trkpt lat="53.5775999073" lon="10.0103601906"><ele>29999.04</ele><time>2026-09-17T10:03:02Z</time></trkpt><trkpt lat="53.5776810441" lon="10.0106842350"><ele>29999.04</ele><time>2026-09-17T10:03:11Z</time></trkpt><trkpt lat="53.5777628515" lon="10.0109625980"><ele>29999.04</ele><time>2026-09-17T10:03:19Z</time></trkpt><trkpt lat="53.5778469220" lon="10.0112366024"><ele>29999.04</ele><time>2026-09-17T10:03:27Z</time></trkpt><trkpt lat="53.5779488459" lon="10.0115333218"><ele>29999.04</ele><time>2026-09-17T10:03:36Z</time></trkpt><trkpt lat="53.5780437291" lon="10.0118359085"><ele>29999.04</ele><time>2026-09-17T10:03:45Z</time></trkpt><trkpt lat="53.5781576391" lon="10.0121071469"><ele>29999.04</ele><time>2026-09-17T10:03:54Z</time></trkpt><trkpt lat="53.5782934260" lon="10.0123162754"><ele>29999.04</ele><time>2026-09-17T10:04:03Z</time></trkpt><trkpt lat="53.5784297995" lon="10.0125128310"><ele>29999.04</ele><time>2026-09-17T10:04:12Z</time></trkpt><trkpt lat="53.5785892233" lon="10.0126810558"><ele>29999.04</ele><time>2026-09-17T10:04:22Z</time></trkpt><trkpt lat="53.5787694342" lon="10.0128091313"><ele>29999.04</ele><time>2026-09-17T10:04:31Z</time></trkpt><trkpt lat="53.5789548419" lon="10.0129210297"><ele>29999.04</ele><time>2026-09-17T10:04:40Z</time></trkpt><trkpt lat="53.5791371483" lon="10.0130468421"><ele>29999.04</ele><time>2026-09-17T10:04:49Z</time></trkpt><trkpt lat="53.5793202929" lon="10.0131767616"><ele>29999.04</ele><time>2026-09-17T10:04:58Z</time></trkpt><trkpt lat="53.5794949718" lon="10.0132254604"><ele>29999.04</ele><time>2026-09-17T10:05:08Z</time></trkpt><trkpt lat="53.5796722490" lon="10.0134656858"><ele>29999.04</ele><time>2026-09-17T10:05:17Z</time></trkpt><trkpt lat="53.5798382107" lon="10.0136031490"><ele>29999.04</ele><time>2026-09-17T10:05:26Z</time></trkpt><trkpt lat="53.5800112970" lon="10.0137798395"><ele>29999.04</ele><time>2026-09-17T10:05:35Z</time></trkpt><trkpt lat="53.5802071821" lon="10.0138654187"><ele>29999.04</ele><time>2026-09-17T10:05:44Z</time></trkpt><trkpt lat="53.5803852137" lon="10.0139498245"><ele>29999.04</ele><time>2026-09-17T10:05:52Z</time></trkpt><trkpt lat="53.5805579647" lon="10.0140698534"><ele>29999.04</ele><time>2026-09-17T10:06:00Z</time></trkpt><trkpt lat="53.5807131976" lon="10.0142260082"><ele>29999.04</ele><time>2026-09-17T10:06:08Z</time></trkpt><trkpt lat="53.5808745492" lon="10.0144002680"><ele>29999.04</ele><time>2026-09-17T10:06:16Z</time></trkpt><trkpt lat="53.5810229927" lon="10.0146513060"><ele>29999.04</ele><time>2026-09-17T10:06:25Z</time></trkpt><trkpt lat="53.5811401717" lon="10.0149399787"><ele>29999.04</ele><time>2026-09-17T10:06:34Z</time></trkpt><trkpt lat="53.5812721867" lon="10.0151671283"><ele>29999.04</ele><time>2026-09-17T10:06:43Z</time></trkpt><trkpt lat="53.5813824926" lon="10.0154380314"><ele>29999.04</ele><time>2026-09-17T10:06:52Z</time></trkpt><trkpt lat="53.5814653896" lon="10.0157229323"><ele>29999.04</ele><time>2026-09-17T10:07:01Z</time></trkpt><trkpt lat="53.5815368872" lon="10.0160064921"><ele>29999.04</ele><time>2026-09-17T10:07:10Z</time></trkpt><trkpt lat="53.5816128273" lon="10.0163053069"><ele>29999.04</ele><time>2026-09-17T10:07:19Z</time></trkpt><trkpt lat="53.5816757753" lon="10.0165937282"><ele>29999.04</ele><time>2026-09-17T10:07:28Z</time></trkpt><trkpt lat="53.5817186069" lon="10.0169019308"><ele>29999.04</ele><time>2026-09-17T10:07:37Z</time></trkpt><trkpt lat="53.5817667190" lon="10.0171968900"><ele>29999.04</ele><time>2026-09-17T10:07:46Z</time></trkpt><trkpt lat="53.5818050243" lon="10.0175017398"><ele>29999.04</ele><time>2026-09-17T10:07:55Z</time></trkpt><trkpt lat="53.5818435811" lon="10.0178214256"><ele>29999.04</ele><time>2026-09-17T10:08:04Z</time></trkpt><trkpt lat="53.5818708222" lon="10.0181617308"><ele>29999.04</ele><time>2026-09-17T10:08:13Z</time></trkpt><trkpt lat="53.5818934534" lon="10.0184815004"><ele>29999.04</ele><time>2026-09-17T10:08:22Z</time></trkpt><trkpt lat="53.5819234606" lon="10.0187937263"><ele>29999.04</ele><time>2026-09-17T10:08:31Z</time></trkpt><trkpt lat="53.5819733329" lon="10.0191085506"><ele>29999.04</ele><time>2026-09-17T10:08:40Z</time></trkpt><trkpt lat="53.5820429865" lon="10.0194139034"><ele>29999.04</ele><time>2026-09-17T10:08:51Z</time></trkpt><trkpt lat="53.5820732452" lon="10.0198885705"><ele>29999.04</ele><time>2026-09-17T10:09:03Z</time></trkpt><trkpt lat="53.5821448267" lon="10.0202294625"><ele>29999.04</ele><time>2026-09-17T10:09:12Z</time></trkpt><trkpt lat="53.5821746662" lon="10.0205677561"><ele>29999.04</ele><time>2026-09-17T10:09:21Z</time></trkpt><trkpt lat="53.5822274722" lon="10.0208810717"><ele>29999.04</ele><time>2026-09-17T10:09:30Z</time></trkpt><trkpt lat="53.5822700523" lon="10.0212034397"><ele>29999.04</ele><time>2026-09-17T10:09:39Z</time></trkpt><trkpt lat="53.5823203437" lon="10.0215274002"><ele>29999.04</ele><time>2026-09-17T10:09:48Z</time></trkpt><trkpt lat="53.5823728982" lon="10.0218479242"><ele>29999.04</ele><time>2026-09-17T10:09:57Z</time></trkpt><trkpt lat="53.5824569687" lon="10.0221491698"><ele>29999.04</ele><time>2026-09-17T10:10:06Z</time></trkpt><trkpt lat="53.5825427156" lon="10.0224493258"><ele>29999.04</ele><time>2026-09-17T10:10:15Z</time></trkpt><trkpt lat="53.5826196615" lon="10.0227533374"><ele>29999.04</ele><time>2026-09-17T10:10:24Z</time></trkpt><trkpt lat="53.5827075038" lon="10.0230516493"><ele>29999.04</ele><time>2026-09-17T10:10:33Z</time></trkpt><trkpt lat="53.5828155465" lon="10.0233378075"><ele>29999.04</ele><time>2026-09-17T10:10:42Z</time></trkpt><trkpt lat="53.5829169676" lon="10.0236071181"><ele>29999.04</ele><time>2026-09-17T10:10:51Z</time></trkpt><trkpt lat="53.5830303747" lon="10.0238864869"><ele>29999.04</ele><time>2026-09-17T10:11:00Z</time></trkpt><trkpt lat="53.5831309576" lon="10.0241754111"><ele>29999.04</ele><time>2026-09-17T10:11:09Z</time></trkpt><trkpt lat="53.5832229070" lon="10.0244696159"><ele>29999.04</ele><time>2026-09-17T10:11:18Z</time></trkpt><trkpt lat="53.5833387449" lon="10.0247399323"><ele>29999.04</ele><time>2026-09-17T10:11:27Z</time></trkpt><trkpt lat="53.5834498052" lon="10.0250213128"><ele>29999.04</ele><time>2026-09-17T10:11:36Z</time></trkpt><trkpt lat="53.5835428443" lon="10.0253156014"><ele>29999.04</ele><time>2026-09-17T10:11:45Z</time></trkpt><trkpt lat="53.5836433433" lon="10.0256207027"><ele>29999.04</ele><time>2026-09-17T10:11:54Z</time></trkpt><trkpt lat="53.5837541521" lon="10.0259038433"><ele>29999.04</ele><time>2026-09-17T10:12:03Z</time></trkpt><trkpt lat="53.5838491190" lon="10.0262019876"><ele>29999.04</ele><time>2026-09-17T10:12:12Z</time></trkpt><trkpt lat="53.5839399789" lon="10.0264975335"><ele>29999.04</ele><time>2026-09-17T10:12:21Z</time></trkpt><trkpt lat="53.5840061121" lon="10.0268143695"><ele>29999.04</ele><time>2026-09-17T10:12:30Z</time></trkpt><trkpt lat="53.5840569064" lon="10.0271112565"><ele>29999.04</ele><time>2026-09-17T10:12:38Z</time></trkpt><trkpt lat="53.5841138195" lon="10.0274414197"><ele>29999.04</ele><time>2026-09-17T10:12:47Z</time></trkpt><trkpt lat="53.5841524601" lon="10.0277615245"><ele>29999.04</ele><time>2026-09-17T10:12:56Z</time></trkpt><trkpt lat="53.5841834731" lon="10.0280955434"><ele>29999.04</ele><time>2026-09-17T10:13:05Z</time></trkpt><trkpt lat="53.5842259694" lon="10.0284563843"><ele>29999.04</ele><time>2026-09-17T10:13:14Z</time></trkpt><trkpt lat="53.5842501931" lon="10.0287847035"><ele>29999.04</ele><time>2026-09-17T10:13:23Z</time></trkpt><trkpt lat="53.5842758417" lon="10.0291256793"><ele>29999.04</ele><time>2026-09-17T10:13:32Z</time></trkpt><trkpt lat="53.5842951201" lon="10.0294615421"><ele>29999.04</ele><time>2026-09-17T10:13:41Z</time></trkpt><trkpt lat="53.5843311623" lon="10.0297944713"><ele>29999.04</ele><time>2026-09-17T10:13:50Z</time></trkpt><trkpt lat="53.5843658634" lon="10.0301222876"><ele>29999.04</ele><time>2026-09-17T10:13:59Z</time></trkpt><trkpt lat="53.5844012350" lon="10.0304514449"><ele>29999.04</ele><time>2026-09-17T10:14:08Z</time></trkpt><trkpt lat="53.5844272189" lon="10.0307721365"><ele>29999.04</ele><time>2026-09-17T10:14:17Z</time></trkpt><trkpt lat="53.5844593216" lon="10.0310749747"><ele>29999.04</ele><time>2026-09-17T10:14:26Z</time></trkpt><trkpt lat="53.5844966210" lon="10.0313816685"><ele>29999.04</ele><time>2026-09-17T10:14:35Z</time></trkpt><trkpt lat="53.5845227726" lon="10.0317003485"><ele>29999.04</ele><time>2026-09-17T10:14:44Z</time></trkpt><trkpt lat="53.5845446493" lon="10.0320150889"><ele>29999.04</ele><time>2026-09-17T10:14:53Z</time></trkpt><trkpt lat="53.5846929252" lon="10.0321659632"><ele>29999.04</ele><time>2026-09-17T10:15:05Z</time></trkpt><trkpt lat="53.5847923346" lon="10.0319165178"><ele>29999.04</ele><time>2026-09-17T10:15:23Z</time></trkpt><trkpt lat="53.5848078411" lon="10.0318397395"><ele>29999.04</ele><time>2026-09-17T10:17:25Z</time></trkpt><trkpt lat="53.5848078411" lon="10.0318410806"><ele>29999.04</ele><time>2026-09-17T10:17:29Z</time></trkpt><trkpt lat="53.5848117806" lon="10.0318575092"><ele>29999.04</ele><time>2026-09-17T10:17:38Z</time></trkpt><trkpt lat="53.5847960226" lon="10.0319021009"><ele>29999.04</ele><time>2026-09-17T10:18:31Z</time></trkpt></trkseg></trk></gpx>