<?xml version="1.0" encoding="UTF-8" standalone="no" ?><gpx xmlns="http://www.topografix.com/GPX/1/1" xmlns:gpxx="http://www.garmin.com/xmlschemas/GpxExtensions/v3" xmlns:gpxtrkx="http://www.garmin.com/xmlschemas/TrackStatsExtension/v1" xmlns:wptx1="http://www.garmin.com/xmlschemas/WaypointExtension/v1" xmlns:gpxtpx="http://www.garmin.com/xmlschemas/TrackPointExtension/v1" creator="Foretrex" version="1.1" xmlns:xsi="http://www.w3.org/2001/XMLSchema-instance" xsi:schemaLocation="http://www.topografix.com/GPX/1/1 http://www.topografix.com/GPX/1/1/gpx.xsd http://www.garmin.com/xmlschemas/GpxExtensions/v3 http://www8.garmin.com/xmlschemas/GpxExtensionsv3.xsd http://www.garmin.com/xmlschemas/TrackStatsExtension/v1 http://www8.garmin.com/xmlschemas/TrackStatsExtension.xsd http://www.garmin.com/xmlschemas/WaypointExtension/v1 http://www8.garmin.com/xmlschemas/WaypointExtensionv1.xsd http://www.garmin.com/xmlschemas/TrackPointExtension/v1 http://www.garmin.com/xmlschemas/TrackPointExtensionv1.xsd"><metadata><link href="http://www.garmin.com"><text>Garmin International</text></link><time>2026-09-15T14:02:32Z</time></metadata><trk><name>15-SEP-26</name><extensions><gpxx:TrackExtension><gpxx:DisplayColor>Black</gpxx:DisplayColor></gpxx:TrackExtension></extensions><trkseg><trkpt lat="53.5848018061" lon="10.0319154281"><ele>29999.04</ele><time>2026-09-14T16:17:48Z</time></trkpt><trkpt lat="53.5846924223" lon="10.0313794054"><ele>29999.04</ele><time>2026-09-14T16:18:34Z</time></trkpt><trkpt lat="53.5847535264" lon="10.0318383146"><ele>29999.04</ele><time>2026-09-14T16:19:41Z</time></trkpt><trkpt lat="53.5847770795" lon="10.0319066271"><ele>29999.04</ele><time>2026-09-14T16:20:21Z</time></trkpt><trkpt lat="53.5847313982" lon="10.0330311432"><ele>29999.04</ele><time>2026-09-14T16:21:05Z</time></trkpt><trkpt lat="53.5925201979" lon="10.0337301940"><ele>29999.04</ele><time>2026-09-14T16:28:16Z</time></trkpt><trkpt lat="53.5925612692" lon="10.0337802339"><ele>29999.04</ele><time>2026-09-14T16:28:19Z</time></trkpt><trkpt lat="53.5927006602" lon="10.0336974207"><ele>29999.04</ele><time>2026-09-14T16:28:26Z</time></trkpt><trkpt lat="53.5928124748" lon="10.0335828401"><ele>29999.04</ele><time>2026-09-14T16:28:32Z</time></trkpt><trkpt lat="53.5928658675" lon="10.0334811676"><ele>29999.04</ele><time>2026-09-14T16:28:36Z</time></trkpt><trkpt lat="53.5929377843" lon="10.0332194008"><ele>29999.04</ele><time>2026-09-14T16:28:43Z</time></trkpt><trkpt lat="53.5929511953" lon="10.0331175607"><ele>29999.04</ele><time>2026-09-14T16:28:46Z</time></trkpt><trkpt lat="53.5929507762" lon="10.0328904111"><ele>29999.04</ele><time>2026-09-14T16:28:52Z</time></trkpt><trkpt lat="53.5928838048" lon="10.0325248763"><ele>29999.04</ele><time>2026-09-14T16:29:06Z</time></trkpt><trkpt lat="53.5928545520" lon="10.0325493515"><ele>29999.04</ele><time>2026-09-14T16:29:10Z</time></trkpt><trkpt lat="53.5928025842" lon="10.0325657800"><ele>29999.04</ele><time>2026-09-14T16:29:13Z</time></trkpt><trkpt lat="53.5927719064" lon="10.0326552149"><ele>29999.04</ele><time>2026-09-14T16:29:14Z</time></trkpt><trkpt lat="53.5927731637" lon="10.0324323401"><ele>29999.04</ele><time>2026-09-14T16:29:15Z</time></trkpt><trkpt lat="53.5925983172" lon="10.0326004811"><ele>29999.04</ele><time>2026-09-14T16:29:17Z</time></trkpt><trkpt lat="53.5925082956" lon="10.0325378682"><ele>29999.04</ele><time>2026-09-14T16:29:20Z</time></trkpt><trkpt lat="53.5924797971" lon="10.0324796140"><ele>29999.04</ele><time>2026-09-14T16:29:21Z</time></trkpt><trkpt lat="53.5925155040" lon="10.0322216190"><ele>29999.04</ele><time>2026-09-14T16:29:22Z</time></trkpt><trkpt lat="53.5925034340" lon="10.0320363790"><ele>29999.04</ele><time>2026-09-14T16:29:24Z</time></trkpt><trkpt lat="53.5924673919" lon="10.0319409091"><ele>29999.04</ele><time>2026-09-14T16:29:26Z</time></trkpt><trkpt lat="53.5924259853" lon="10.0318793859"><ele>29999.04</ele><time>2026-09-14T16:29:28Z</time></trkpt><trkpt lat="53.5923585109" lon="10.0318212155"><ele>29999.04</ele><time>2026-09-14T16:29:31Z</time></trkpt><trkpt lat="53.5922689922" lon="10.0317389891"><ele>29999.04</ele><time>2026-09-14T16:29:37Z</time></trkpt><trkpt lat="53.5922199581" lon="10.0317408331"><ele>29999.04</ele><time>2026-09-14T16:29:48Z</time></trkpt><trkpt lat="53.5921943095" lon="10.0317192078"><ele>29999.04</ele><time>2026-09-14T16:29:50Z</time></trkpt><trkpt lat="53.5907595791" lon="10.0296690781"><ele>29999.04</ele><time>2026-09-14T16:31:33Z</time></trkpt><trkpt lat="53.5846883990" lon="10.0320052821"><ele>29999.04</ele><time>2026-09-14T17:05:40Z</time></trkpt><trkpt lat="53.5846618284" lon="10.0319618639"><ele>29999.04</ele><time>2026-09-14T17:07:05Z</time></trkpt><trkpt lat="53.5847948492" lon="10.0319102313"><ele>29999.04</ele><time>2026-09-14T17:07:33Z</time></trkpt><trkpt lat="53.5848668497" lon="10.0318577606"><ele>29999.04</ele><time>2026-09-14T17:08:05Z</time></trkpt><trkpt lat="53.5847272910" lon="10.0319129135"><ele>29999.04</ele><time>2026-09-14T17:08:33Z</time></trkpt><trkpt lat="53.5847660992" lon="10.0317995064"><ele>29999.04</ele><time>2026-09-14T17:09:03Z</time></trkpt><trkpt lat="53.5848178994" lon="10.0318389852"><ele>29999.04</ele><time>2026-09-14T17:09:34Z</time></trkpt><trkpt lat="53.5847814381" lon="10.0318023562"><ele>29999.04</ele><time>2026-09-14T17:10:03Z</time></trkpt><trkpt lat="53.5848260298" lon="10.0317633804"><ele>29999.04</ele><time>2026-09-14T17:10:35Z</time></trkpt><trkpt lat="53.5846622474" lon="10.0318474509"><ele>29999.04</ele><time>2026-09-14T17:11:04Z</time></trkpt><trkpt lat="53.5850400198" lon="10.0322078727"><ele>29999.04</ele><time>2026-09-15T08:02:21Z</time></trkpt><trkpt lat="53.5848018061" lon="10.0318718422"><ele>29999.04</ele><time>2026-09-15T08:13:53Z</time></trkpt><trkpt lat="53.5844635963" lon="10.0293542538"><ele>29999.04</ele><time>2026-09-15T08:15:24Z</time></trkpt><trkpt lat="53.5823532846" lon="10.0210575946"><ele>29999.04</ele><time>2026-09-15T08:20:38Z</time></trkpt><trkpt lat="53.5821881611" lon="10.0197676197"><ele>29999.04</ele><time>2026-09-15T08:21:08Z</time></trkpt><trkpt lat="53.5822528694" lon="10.0195747521"><ele>29999.04</ele><time>2026-09-15T08:21:16Z</time></trkpt><trkpt lat="53.5821734089" lon="10.0193223730"><ele>29999.04</ele><time>2026-09-15T08:21:23Z</time></trkpt><trkpt lat="53.5795167647" lon="10.0132918451"><ele>29999.04</ele><time>2026-09-15T08:25:11Z</time></trkpt><trkpt lat="53.5570296273" lon="9.9971101619"><ele>29999.04</ele><time>2026-09-15T08:45:13Z</time></trkpt><trkpt lat="53.5569920763" lon="9.9969141092"><ele>29999.04</ele><time>2026-09-15T08:45:17Z</time></trkpt><trkpt lat="53.5569748096" lon="9.9973936379"><ele>29999.04</ele><time>2026-09-15T08:51:56Z</time></trkpt><trkpt lat="53.5793331172" lon="10.0132333394"><ele>29999.04</ele><time>2026-09-15T09:10:32Z</time></trkpt><trkpt lat="53.5793686565" lon="10.0132922642"><ele>29999.04</ele><time>2026-09-15T09:10:37Z</time></trkpt><trkpt lat="53.5811218154" lon="10.0149586704"><ele>29999.04</ele><time>2026-09-15T09:12:04Z</time></trkpt><trkpt lat="53.5812623799" lon="10.0152097922"><ele>29999.04</ele><time>2026-09-15T09:12:13Z</time></trkpt><trkpt lat="53.5821004864" lon="10.0192073733"><ele>29999.04</ele><time>2026-09-15T09:14:05Z</time></trkpt><trkpt lat="53.5821059346" lon="10.0194095448"><ele>29999.04</ele><time>2026-09-15T09:14:11Z</time></trkpt><trkpt lat="53.5820701439" lon="10.0194934476"><ele>29999.04</ele><time>2026-09-15T09:14:17Z</time></trkpt><trkpt lat="53.5820408911" lon="10.0197878201"><ele>29999.04</ele><time>2026-09-15T09:14:23Z</time></trkpt><trkpt lat="53.5840186011" lon="10.0268644933"><ele>29999.04</ele><time>2026-09-15T09:17:49Z</time></trkpt></trkseg></trk></gpx>