<?xml version="1.0" encoding="UTF-8" standalone="no" ?><gpx xmlns="http://www.topografix.com/GPX/1/1" xmlns:gpxx="http://www.garmin.com/xmlschemas/GpxExtensions/v3" xmlns:gpxtrkx="http://www.garmin.com/xmlschemas/TrackStatsExtension/v1" xmlns:wptx1="http://www.garmin.com/xmlschemas/WaypointExtension/v1" xmlns:gpxtpx="http://www.garmin.com/xmlschemas/TrackPointExtension/v1" creator="Foretrex" version="1.1" xmlns:xsi="http://www.w3.org/2001/XMLSchema-instance" xsi:schemaLocation="http://www.topografix.com/GPX/1/1 http://www.topografix.com/GPX/1/1/gpx.xsd http://www.garmin.com/xmlschemas/GpxExtensions/v3 http://www8.garmin.com/xmlschemas/GpxExtensionsv3.xsd http://www.garmin.com/xmlschemas/TrackStatsExtension/v1 http://www8.garmin.com/xmlschemas/TrackStatsExtension.xsd http://www.garmin.com/xmlschemas/WaypointExtension/v1 http://www8.garmin.com/xmlschemas/WaypointExtensionv1.xsd http://www.garmin.com/xmlschemas/TrackPointExtension/v1 http://www.garmin.com/xmlschemas/TrackPointExtensionv1.xsd"><metadata><link href="http://www.garmin.com"><text>Garmin International</text></link><time>2026-09-15T20:09:18Z</time></metadata><trk><name>15-SEP-26A</name><extensions><gpxx:TrackExtension><gpxx:DisplayColor>Black</gpxx:DisplayColor></gpxx:TrackExtension></extensions><trkseg><trkpt lat="53.5846273787" lon="10.0318643823"><ele>29999.04</ele><time>2026-09-15T15:24:12Z</time></trkpt><trkpt lat="53.5847181547" lon="10.0315899588"><ele>29999.04</ele><time>2026-09-15T15:25:25Z</time></trkpt><trkpt lat="53.5846157279" lon="10.0313286949"><ele>29999.04</ele><time>2026-09-15T15:25:33Z</time></trkpt><trkpt lat="53.5845583118" lon="10.0310370047"><ele>29999.04</ele><time>2026-09-15T15:25:41Z</time></trkpt><trkpt lat="53.5844948608" lon="10.0304234494"><ele>29999.04</ele><time>2026-09-15T15:25:57Z</time></trkpt><trkpt lat="53.5844126344" lon="10.0291721988"><ele>29999.04</ele><time>2026-09-15T15:26:29Z</time></trkpt><trkpt lat="53.5841865744" lon="10.0273029506"><ele>29999.04</ele><time>2026-09-15T15:27:19Z</time></trkpt><trkpt lat="53.5841016658" lon="10.0270245038"><ele>29999.04</ele><time>2026-09-15T15:27:28Z</time></trkpt><trkpt lat="53.5840068664" lon="10.0267859548"><ele>29999.04</ele><time>2026-09-15T15:27:37Z</time></trkpt><trkpt lat="53.5839295853" lon="10.0264873914"><ele>29999.04</ele><time>2026-09-15T15:27:46Z</time></trkpt><trkpt lat="53.5836237296" lon="10.0256694853"><ele>29999.04</ele><time>2026-09-15T15:28:13Z</time></trkpt><trkpt lat="53.5835347138" lon="10.0253668148"><ele>29999.04</ele><time>2026-09-15T15:28:22Z</time></trkpt><trkpt lat="53.5833370686" lon="10.0247906428"><ele>29999.04</ele><time>2026-09-15T15:28:39Z</time></trkpt><trkpt lat="53.5831679218" lon="10.0241798535"><ele>29999.04</ele><time>2026-09-15T15:28:55Z</time></trkpt><trkpt lat="53.5830621421" lon="10.0239120517"><ele>29999.04</ele><time>2026-09-15T15:29:03Z</time></trkpt><trkpt lat="53.5828536842" lon="10.0233833212"><ele>29999.04</ele><time>2026-09-15T15:29:19Z</time></trkpt><trkpt lat="53.5827688593" lon="10.0230724365"><ele>29999.04</ele><time>2026-09-15T15:29:28Z</time></trkpt><trkpt lat="53.5826785862" lon="10.0227876194"><ele>29999.04</ele><time>2026-09-15T15:29:37Z</time></trkpt><trkpt lat="53.5824495926" lon="10.0218974613"><ele>29999.04</ele><time>2026-09-15T15:30:04Z</time></trkpt><trkpt lat="53.5823764186" lon="10.0209428463"><ele>29999.04</ele><time>2026-09-15T15:30:31Z</time></trkpt><trkpt lat="53.5822723992" lon="10.0203661714"><ele>29999.04</ele><time>2026-09-15T15:30:49Z</time></trkpt><trkpt lat="53.5821838863" lon="10.0197418872"><ele>29999.04</ele><time>2026-09-15T15:31:08Z</time></trkpt><trkpt lat="53.5820240434" lon="10.0192977302"><ele>29999.04</ele><time>2026-09-15T15:31:25Z</time></trkpt><trkpt lat="53.5820588283" lon="10.0188919622"><ele>29999.04</ele><time>2026-09-15T15:31:34Z</time></trkpt><trkpt lat="53.5820030048" lon="10.0185747072"><ele>29999.04</ele><time>2026-09-15T15:31:43Z</time></trkpt><trkpt lat="53.5819470976" lon="10.0179183204"><ele>29999.04</ele><time>2026-09-15T15:32:01Z</time></trkpt><trkpt lat="53.5816715006" lon="10.0163828395"><ele>29999.04</ele><time>2026-09-15T15:32:46Z</time></trkpt><trkpt lat="53.5815965664" lon="10.0160969328"><ele>29999.04</ele><time>2026-09-15T15:32:55Z</time></trkpt><trkpt lat="53.5814871825" lon="10.0158519298"><ele>29999.04</ele><time>2026-09-15T15:33:04Z</time></trkpt><trkpt lat="53.5813954845" lon="10.0155728962"><ele>29999.04</ele><time>2026-09-15T15:33:13Z</time></trkpt><trkpt lat="53.5810842644" lon="10.0147690717"><ele>29999.04</ele><time>2026-09-15T15:33:40Z</time></trkpt><trkpt lat="53.5806934163" lon="10.0140701048"><ele>29999.04</ele><time>2026-09-15T15:34:07Z</time></trkpt><trkpt lat="53.5803733952" lon="10.0137567893"><ele>29999.04</ele><time>2026-09-15T15:34:26Z</time></trkpt><trkpt lat="53.5801801085" lon="10.0137088448"><ele>29999.04</ele><time>2026-09-15T15:34:51Z</time></trkpt><trkpt lat="53.5799923539" lon="10.0136449747"><ele>29999.04</ele><time>2026-09-15T15:35:01Z</time></trkpt><trkpt lat="53.5798211116" lon="10.0134866405"><ele>29999.04</ele><time>2026-09-15T15:35:11Z</time></trkpt><trkpt lat="53.5795990750" lon="10.0133540388"><ele>29999.04</ele><time>2026-09-15T15:35:21Z</time></trkpt><trkpt lat="53.5791819915" lon="10.0129811279"><ele>29999.04</ele><time>2026-09-15T15:35:53Z</time></trkpt><trkpt lat="53.5790372360" lon="10.0127777830"><ele>29999.04</ele><time>2026-09-15T15:36:10Z</time></trkpt><trkpt lat="53.5788487270" lon="10.0127146672"><ele>29999.04</ele><time>2026-09-15T15:36:22Z</time></trkpt><trkpt lat="53.5786497407" lon="10.0126968138"><ele>29999.04</ele><time>2026-09-15T15:36:32Z</time></trkpt><trkpt lat="53.5784604773" lon="10.0125582609"><ele>29999.04</ele><time>2026-09-15T15:36:42Z</time></trkpt><trkpt lat="53.5781695414" lon="10.0120855216"><ele>29999.04</ele><time>2026-09-15T15:37:00Z</time></trkpt><trkpt lat="53.5779490136" lon="10.0115130376"><ele>29999.04</ele><time>2026-09-15T15:37:18Z</time></trkpt><trkpt lat="53.5776145756" lon="10.0107256416"><ele>29999.04</ele><time>2026-09-15T15:37:43Z</time></trkpt><trkpt lat="53.5774234682" lon="10.0101544987"><ele>29999.04</ele><time>2026-09-15T15:38:01Z</time></trkpt><trkpt lat="53.5773360450" lon="10.0098289456"><ele>29999.04</ele><time>2026-09-15T15:38:11Z</time></trkpt><trkpt lat="53.5770897847" lon="10.0085953809"><ele>29999.04</ele><time>2026-09-15T15:38:45Z</time></trkpt><trkpt lat="53.5768431053" lon="10.0070676114"><ele>29999.04</ele><time>2026-09-15T15:39:28Z</time></trkpt><trkpt lat="53.5767085757" lon="10.0064739212"><ele>29999.04</ele><time>2026-09-15T15:39:46Z</time></trkpt><trkpt lat="53.5766058136" lon="10.0055552647"><ele>29999.04</ele><time>2026-09-15T15:40:13Z</time></trkpt><trkpt lat="53.5766969249" lon="10.0049044099"><ele>29999.04</ele><time>2026-09-15T15:40:30Z</time></trkpt><trkpt lat="53.5767834261" lon="10.0046195090"><ele>29999.04</ele><time>2026-09-15T15:40:38Z</time></trkpt><trkpt lat="53.5770586040" lon="10.0041101407"><ele>29999.04</ele><time>2026-09-15T15:40:54Z</time></trkpt><trkpt lat="53.5772057902" lon="10.0038885232"><ele>29999.04</ele><time>2026-09-15T15:41:02Z</time></trkpt><trkpt lat="53.5775304213" lon="10.0035566837"><ele>29999.04</ele><time>2026-09-15T15:41:17Z</time></trkpt><trkpt lat="53.5778923519" lon="10.0033084955"><ele>29999.04</ele><time>2026-09-15T15:41:34Z</time></trkpt><trkpt lat="53.5782418773" lon="10.0029842835"><ele>29999.04</ele><time>2026-09-15T15:41:52Z</time></trkpt><trkpt lat="53.5784070008" lon="10.0027978700"><ele>29999.04</ele><time>2026-09-15T15:42:01Z</time></trkpt><trkpt lat="53.5788355675" lon="10.0021148287"><ele>29999.04</ele><time>2026-09-15T15:42:27Z</time></trkpt><trkpt lat="53.5789487232" lon="10.0018750224"><ele>29999.04</ele><time>2026-09-15T15:42:35Z</time></trkpt><trkpt lat="53.5791441891" lon="10.0013312045"><ele>29999.04</ele><time>2026-09-15T15:42:52Z</time></trkpt><trkpt lat="53.5792289302" lon="10.0010481477"><ele>29999.04</ele><time>2026-09-15T15:43:01Z</time></trkpt><trkpt lat="53.5794081353" lon="10.0006267056"><ele>29999.04</ele><time>2026-09-15T15:44:01Z</time></trkpt><trkpt lat="53.5793388169" lon="10.0003428943"><ele>29999.04</ele><time>2026-09-15T15:44:16Z</time></trkpt><trkpt lat="53.5791771300" lon="10.0001952890"><ele>29999.04</ele><time>2026-09-15T15:44:26Z</time></trkpt><trkpt lat="53.5786125250" lon="10.0001375377"><ele>29999.04</ele><time>2026-09-15T15:45:06Z</time></trkpt><trkpt lat="53.5784097668" lon="10.0001692213"><ele>29999.04</ele><time>2026-09-15T15:45:15Z</time></trkpt><trkpt lat="53.5782360099" lon="10.0002755038"><ele>29999.04</ele><time>2026-09-15T15:45:23Z</time></trkpt><trkpt lat="53.5773637053" lon="10.0009570364"><ele>29999.04</ele><time>2026-09-15T15:46:04Z</time></trkpt><trkpt lat="53.5768353101" lon="10.0013223197"><ele>29999.04</ele><time>2026-09-15T15:46:28Z</time></trkpt><trkpt lat="53.5759474151" lon="10.0018188637"><ele>29999.04</ele><time>2026-09-15T15:47:08Z</time></trkpt><trkpt lat="53.5757739097" lon="10.0019481964"><ele>29999.04</ele><time>2026-09-15T15:47:16Z</time></trkpt><trkpt lat="53.5754166730" lon="10.0021576602"><ele>29999.04</ele><time>2026-09-15T15:47:32Z</time></trkpt><trkpt lat="53.5748817399" lon="10.0025299843"><ele>29999.04</ele><time>2026-09-15T15:47:59Z</time></trkpt><trkpt lat="53.5741581302" lon="10.0028613210"><ele>29999.04</ele><time>2026-09-15T15:48:34Z</time></trkpt><trkpt lat="53.5737564694" lon="10.0029694475"><ele>29999.04</ele><time>2026-09-15T15:48:50Z</time></trkpt><trkpt lat="53.5735562257" lon="10.0030443817"><ele>29999.04</ele><time>2026-09-15T15:48:58Z</time></trkpt><trkpt lat="53.5727726854" lon="10.0032499898"><ele>29999.04</ele><time>2026-09-15T15:49:29Z</time></trkpt><trkpt lat="53.5723707732" lon="10.0032597128"><ele>29999.04</ele><time>2026-09-15T15:49:45Z</time></trkpt><trkpt lat="53.5721789114" lon="10.0032946654"><ele>29999.04</ele><time>2026-09-15T15:49:54Z</time></trkpt><trkpt lat="53.5719864629" lon="10.0032842718"><ele>29999.04</ele><time>2026-09-15T15:50:03Z</time></trkpt><trkpt lat="53.5712274816" lon="10.0031696074"><ele>29999.04</ele><time>2026-09-15T15:50:38Z</time></trkpt><trkpt lat="53.5706758685" lon="10.0031047314"><ele>29999.04</ele><time>2026-09-15T15:51:02Z</time></trkpt><trkpt lat="53.5701205675" lon="10.0030756462"><ele>29999.04</ele><time>2026-09-15T15:51:26Z</time></trkpt><trkpt lat="53.5697662644" lon="10.0029717945"><ele>29999.04</ele><time>2026-09-15T15:51:42Z</time></trkpt><trkpt lat="53.5693861451" lon="10.0029267836"><ele>29999.04</ele><time>2026-09-15T15:51:59Z</time></trkpt><trkpt lat="53.5690101329" lon="10.0028517656"><ele>29999.04</ele><time>2026-09-15T15:52:15Z</time></trkpt><trkpt lat="53.5686400719" lon="10.0028140470"><ele>29999.04</ele><time>2026-09-15T15:52:31Z</time></trkpt><trkpt lat="53.5678870417" lon="10.0026331656"><ele>29999.04</ele><time>2026-09-15T15:53:08Z</time></trkpt><trkpt lat="53.5676966049" lon="10.0026050862"><ele>29999.04</ele><time>2026-09-15T15:53:17Z</time></trkpt><trkpt lat="53.5675048269" lon="10.0025434792"><ele>29999.04</ele><time>2026-09-15T15:53:26Z</time></trkpt><trkpt lat="53.5673092771" lon="10.0025055930"><ele>29999.04</ele><time>2026-09-15T15:53:34Z</time></trkpt><trkpt lat="53.5669469275" lon="10.0023801997"><ele>29999.04</ele><time>2026-09-15T15:53:50Z</time></trkpt><trkpt lat="53.5667642858" lon="10.0022939499"><ele>29999.04</ele><time>2026-09-15T15:53:58Z</time></trkpt><trkpt lat="53.5665734299" lon="10.0021864939"><ele>29999.04</ele><time>2026-09-15T15:54:06Z</time></trkpt><trkpt lat="53.5662113316" lon="10.0018995814"><ele>29999.04</ele><time>2026-09-15T15:54:22Z</time></trkpt><trkpt lat="53.5660388321" lon="10.0018135831"><ele>29999.04</ele><time>2026-09-15T15:54:30Z</time></trkpt><trkpt lat="53.5658749659" lon="10.0017084740"><ele>29999.04</ele><time>2026-09-15T15:54:39Z</time></trkpt><trkpt lat="53.5656972695" lon="10.0016381498"><ele>29999.04</ele><time>2026-09-15T15:54:48Z</time></trkpt><trkpt lat="53.5655215848" lon="10.0015275087"><ele>29999.04</ele><time>2026-09-15T15:54:57Z</time></trkpt><trkpt lat="53.5649783537" lon="10.0012552645"><ele>29999.04</ele><time>2026-09-15T15:55:24Z</time></trkpt><trkpt lat="53.5646175127" lon="10.0010316353"><ele>29999.04</ele><time>2026-09-15T15:55:42Z</time></trkpt><trkpt lat="53.5644495394" lon="10.0009053200"><ele>29999.04</ele><time>2026-09-15T15:55:50Z</time></trkpt><trkpt lat="53.5642763693" lon="10.0008220877"><ele>29999.04</ele><time>2026-09-15T15:55:58Z</time></trkpt><trkpt lat="53.5641084798" lon="10.0007061660"><ele>29999.04</ele><time>2026-09-15T15:56:06Z</time></trkpt><trkpt lat="53.5639370698" lon="10.0005279668"><ele>29999.04</ele><time>2026-09-15T15:56:15Z</time></trkpt><trkpt lat="53.5632884782" lon="9.9999339413"><ele>29999.04</ele><time>2026-09-15T15:56:47Z</time></trkpt><trkpt lat="53.5624131560" lon="9.9993891176"><ele>29999.04</ele><time>2026-09-15T15:57:28Z</time></trkpt><trkpt lat="53.5618667398" lon="9.9990977626"><ele>29999.04</ele><time>2026-09-15T15:57:56Z</time></trkpt><trkpt lat="53.5616927315" lon="9.9990254268"><ele>29999.04</ele><time>2026-09-15T15:58:05Z</time></trkpt><trkpt lat="53.5611304734" lon="9.9988289550"><ele>29999.04</ele><time>2026-09-15T15:58:31Z</time></trkpt><trkpt lat="53.5607674532" lon="9.9986570422"><ele>29999.04</ele><time>2026-09-15T15:58:47Z</time></trkpt><trkpt lat="53.5602143314" lon="9.9984349217"><ele>29999.04</ele><time>2026-09-15T15:59:11Z</time></trkpt><trkpt lat="53.5600236431" lon="9.9983982090"><ele>29999.04</ele><time>2026-09-15T15:59:19Z</time></trkpt><trkpt lat="53.5596628021" lon="9.9981917627"><ele>29999.04</ele><time>2026-09-15T15:59:35Z</time></trkpt><trkpt lat="53.5594753828" lon="9.9981319159"><ele>29999.04</ele><time>2026-09-15T15:59:44Z</time></trkpt><trkpt lat="53.5587292258" lon="9.9980429839"><ele>29999.04</ele><time>2026-09-15T16:00:20Z</time></trkpt><trkpt lat="53.5583636072" lon="9.9979307503"><ele>29999.04</ele><time>2026-09-15T16:00:37Z</time></trkpt><trkpt lat="53.5581793729" lon="9.9978555646"><ele>29999.04</ele><time>2026-09-15T16:00:45Z</time></trkpt><trkpt lat="53.5578261595" lon="9.9976612721"><ele>29999.04</ele><time>2026-09-15T16:01:04Z</time></trkpt><trkpt lat="53.5574207269" lon="9.9973660614"><ele>29999.04</ele><time>2026-09-15T16:01:22Z</time></trkpt><trkpt lat="53.5572530050" lon="9.9972224794"><ele>29999.04</ele><time>2026-09-15T16:01:31Z</time></trkpt><trkpt lat="53.5570666753" lon="9.9972129241"><ele>29999.04</ele><time>2026-09-15T16:01:42Z</time></trkpt><trkpt lat="53.5570080858" lon="9.9972181208"><ele>29999.04</ele><time>2026-09-15T16:01:44Z</time></trkpt><trkpt lat="53.5567848757" lon="9.9969905522"><ele>29999.04</ele><time>2026-09-15T16:01:50Z</time></trkpt><trkpt lat="53.5566037428" lon="9.9965701159"><ele>29999.04</ele><time>2026-09-15T16:02:07Z</time></trkpt><trkpt lat="53.5565482546" lon="9.9962791800"><ele>29999.04</ele><time>2026-09-15T16:02:15Z</time></trkpt><trkpt lat="53.5565261263" lon="9.9959466700"><ele>29999.04</ele><time>2026-09-15T16:02:24Z</time></trkpt><trkpt lat="53.5565383639" lon="9.9956492800"><ele>29999.04</ele><time>2026-09-15T16:02:33Z</time></trkpt><trkpt lat="53.5566164833" lon="9.9950303603"><ele>29999.04</ele><time>2026-09-15T16:02:54Z</time></trkpt><trkpt lat="53.5567389429" lon="9.9944395199"><ele>29999.04</ele><time>2026-09-15T16:03:15Z</time></trkpt><trkpt lat="53.5567347519" lon="9.9941245280"><ele>29999.04</ele><time>2026-09-15T16:03:26Z</time></trkpt><trkpt lat="53.5566660203" lon="9.9938186724"><ele>29999.04</ele><time>2026-09-15T16:03:37Z</time></trkpt><trkpt lat="53.5565788485" lon="9.9935342744"><ele>29999.04</ele><time>2026-09-15T16:03:47Z</time></trkpt><trkpt lat="53.5564672854" lon="9.9932828173"><ele>29999.04</ele><time>2026-09-15T16:03:57Z</time></trkpt><trkpt lat="53.5563314147" lon="9.9930570927"><ele>29999.04</ele><time>2026-09-15T16:04:07Z</time></trkpt><trkpt lat="53.5560258944" lon="9.9926768895"><ele>29999.04</ele><time>2026-09-15T16:04:27Z</time></trkpt><trkpt lat="53.5558554064" lon="9.9925021268"><ele>29999.04</ele><time>2026-09-15T16:04:37Z</time></trkpt><trkpt lat="53.5555111617" lon="9.9922401085"><ele>29999.04</ele><time>2026-09-15T16:04:56Z</time></trkpt><trkpt lat="53.5553286038" lon="9.9921531044"><ele>29999.04</ele><time>2026-09-15T16:05:05Z</time></trkpt><trkpt lat="53.5551429447" lon="9.9920927547"><ele>29999.04</ele><time>2026-09-15T16:05:14Z</time></trkpt><trkpt lat="53.5549505800" lon="9.9921419565"><ele>29999.04</ele><time>2026-09-15T16:05:24Z</time></trkpt><trkpt lat="53.5547666810" lon="9.9922809284"><ele>29999.04</ele><time>2026-09-15T16:05:34Z</time></trkpt><trkpt lat="53.5546026472" lon="9.9924409389"><ele>29999.04</ele><time>2026-09-15T16:05:43Z</time></trkpt><trkpt lat="53.5544450674" lon="9.9926193058"><ele>29999.04</ele><time>2026-09-15T16:05:52Z</time></trkpt><trkpt lat="53.5541533772" lon="9.9930304382"><ele>29999.04</ele><time>2026-09-15T16:06:10Z</time></trkpt><trkpt lat="53.5537868366" lon="9.9937692191"><ele>29999.04</ele><time>2026-09-15T16:06:37Z</time></trkpt><trkpt lat="53.5535606090" lon="9.9943251908"><ele>29999.04</ele><time>2026-09-15T16:06:55Z</time></trkpt><trkpt lat="53.5534954816" lon="9.9946340639"><ele>29999.04</ele><time>2026-09-15T16:07:04Z</time></trkpt><trkpt lat="53.5534793045" lon="9.9949350581"><ele>29999.04</ele><time>2026-09-15T16:07:12Z</time></trkpt><trkpt lat="53.5535094794" lon="9.9956101365"><ele>29999.04</ele><time>2026-09-15T16:07:30Z</time></trkpt><trkpt lat="53.5535614472" lon="9.9958998151"><ele>29999.04</ele><time>2026-09-15T16:07:39Z</time></trkpt><trkpt lat="53.5536966473" lon="9.9961340055"><ele>29999.04</ele><time>2026-09-15T16:07:48Z</time></trkpt><trkpt lat="53.5540159978" lon="9.9965339061"><ele>29999.04</ele><time>2026-09-15T16:08:06Z</time></trkpt><trkpt lat="53.5541941971" lon="9.9966938328"><ele>29999.04</ele><time>2026-09-15T16:08:15Z</time></trkpt><trkpt lat="53.5543835443" lon="9.9968212377"><ele>29999.04</ele><time>2026-09-15T16:08:24Z</time></trkpt><trkpt lat="53.5549395997" lon="9.9970885366"><ele>29999.04</ele><time>2026-09-15T16:08:50Z</time></trkpt><trkpt lat="53.5553069785" lon="9.9971425161"><ele>29999.04</ele><time>2026-09-15T16:09:08Z</time></trkpt><trkpt lat="53.5556862596" lon="9.9971158616"><ele>29999.04</ele><time>2026-09-15T16:09:30Z</time></trkpt><trkpt lat="53.5560748447" lon="9.9971176218"><ele>29999.04</ele><time>2026-09-15T16:09:48Z</time></trkpt><trkpt lat="53.5564354341" lon="9.9971697573"><ele>29999.04</ele><time>2026-09-15T16:10:04Z</time></trkpt><trkpt lat="53.5566151422" lon="9.9972195458"><ele>29999.04</ele><time>2026-09-15T16:10:12Z</time></trkpt><trkpt lat="53.5568053275" lon="9.9972930551"><ele>29999.04</ele><time>2026-09-15T16:10:21Z</time></trkpt><trkpt lat="53.5569935851" lon="9.9974119104"><ele>29999.04</ele><time>2026-09-15T16:10:30Z</time></trkpt><trkpt lat="53.5572356544" lon="9.9974720925"><ele>29999.04</ele><time>2026-09-15T16:10:39Z</time></trkpt><trkpt lat="53.5573260952" lon="9.9977571610"><ele>29999.04</ele><time>2026-09-15T16:10:48Z</time></trkpt><trkpt lat="53.5575053841" lon="9.9979195185"><ele>29999.04</ele><time>2026-09-15T16:10:57Z</time></trkpt><trkpt lat="53.5576660652" lon="9.9980843905"><ele>29999.04</ele><time>2026-09-15T16:11:06Z</time></trkpt><trkpt lat="53.5578197055" lon="9.9983423855"><ele>29999.04</ele><time>2026-09-15T16:11:17Z</time></trkpt><trkpt lat="53.5579606052" lon="9.9986494984"><ele>29999.04</ele><time>2026-09-15T16:11:26Z</time></trkpt><trkpt lat="53.5580232181" lon="9.9989609700"><ele>29999.04</ele><time>2026-09-15T16:11:34Z</time></trkpt><trkpt lat="53.5581496172" lon="9.9999123998"><ele>29999.04</ele><time>2026-09-15T16:11:57Z</time></trkpt><trkpt lat="53.5583721567" lon="10.0012075715"><ele>29999.04</ele><time>2026-09-15T16:12:29Z</time></trkpt><trkpt lat="53.5584369488" lon="10.0018260721"><ele>29999.04</ele><time>2026-09-15T16:12:46Z</time></trkpt><trkpt lat="53.5584561434" lon="10.0024692155"><ele>29999.04</ele><time>2026-09-15T16:13:04Z</time></trkpt><trkpt lat="53.5585327540" lon="10.0031127781"><ele>29999.04</ele><time>2026-09-15T16:13:22Z</time></trkpt><trkpt lat="53.5588029865" lon="10.0043098815"><ele>29999.04</ele><time>2026-09-15T16:13:55Z</time></trkpt><trkpt lat="53.5588878952" lon="10.0045966264"><ele>29999.04</ele><time>2026-09-15T16:14:03Z</time></trkpt><trkpt lat="53.5590042360" lon="10.0048427191"><ele>29999.04</ele><time>2026-09-15T16:14:11Z</time></trkpt><trkpt lat="53.5594001971" lon="10.0055306219"><ele>29999.04</ele><time>2026-09-15T16:14:35Z</time></trkpt><trkpt lat="53.5595341399" lon="10.0057396665"><ele>29999.04</ele><time>2026-09-15T16:14:43Z</time></trkpt><trkpt lat="53.5599034466" lon="10.0064239651"><ele>29999.04</ele><time>2026-09-15T16:15:07Z</time></trkpt><trkpt lat="53.5601248126" lon="10.0069260411"><ele>29999.04</ele><time>2026-09-15T16:15:23Z</time></trkpt><trkpt lat="53.5604392178" lon="10.0080722664"><ele>29999.04</ele><time>2026-09-15T16:15:57Z</time></trkpt><trkpt lat="53.5607989691" lon="10.0091656018"><ele>29999.04</ele><time>2026-09-15T16:16:33Z</time></trkpt><trkpt lat="53.5609190818" lon="10.0097717810"><ele>29999.04</ele><time>2026-09-15T16:16:50Z</time></trkpt><trkpt lat="53.5610148031" lon="10.0100688357"><ele>29999.04</ele><time>2026-09-15T16:16:58Z</time></trkpt><trkpt lat="53.5612423718" lon="10.0106096361"><ele>29999.04</ele><time>2026-09-15T16:17:14Z</time></trkpt><trkpt lat="53.5613343213" lon="10.0108803716"><ele>29999.04</ele><time>2026-09-15T16:17:21Z</time></trkpt><trkpt lat="53.5614160448" lon="10.0111651886"><ele>29999.04</ele><time>2026-09-15T16:17:28Z</time></trkpt><trkpt lat="53.5615212377" lon="10.0114439707"><ele>29999.04</ele><time>2026-09-15T16:17:36Z</time></trkpt><trkpt lat="53.5616349801" lon="10.0116854534"><ele>29999.04</ele><time>2026-09-15T16:17:45Z</time></trkpt><trkpt lat="53.5618344694" lon="10.0122307800"><ele>29999.04</ele><time>2026-09-15T16:18:04Z</time></trkpt><trkpt lat="53.5619432665" lon="10.0124795549"><ele>29999.04</ele><time>2026-09-15T16:18:13Z</time></trkpt><trkpt lat="53.5622225516" lon="10.0129364524"><ele>29999.04</ele><time>2026-09-15T16:18:31Z</time></trkpt><trkpt lat="53.5626832210" lon="10.0134445634"><ele>29999.04</ele><time>2026-09-15T16:18:55Z</time></trkpt><trkpt lat="53.5629799403" lon="10.0138309691"><ele>29999.04</ele><time>2026-09-15T16:19:11Z</time></trkpt><trkpt lat="53.5631143022" lon="10.0140600465"><ele>29999.04</ele><time>2026-09-15T16:19:20Z</time></trkpt><trkpt lat="53.5632744804" lon="10.0142660737"><ele>29999.04</ele><time>2026-09-15T16:19:29Z</time></trkpt><trkpt lat="53.5636029672" lon="10.0145216379"><ele>29999.04</ele><time>2026-09-15T16:19:45Z</time></trkpt><trkpt lat="53.5637760535" lon="10.0146109052"><ele>29999.04</ele><time>2026-09-15T16:19:53Z</time></trkpt><trkpt lat="53.5639554262" lon="10.0146517251"><ele>29999.04</ele><time>2026-09-15T16:20:01Z</time></trkpt><trkpt lat="53.5643550754" lon="10.0147129130"><ele>29999.04</ele><time>2026-09-15T16:20:19Z</time></trkpt><trkpt lat="53.5645569954" lon="10.0147317722"><ele>29999.04</ele><time>2026-09-15T16:20:28Z</time></trkpt><trkpt lat="53.5649489332" lon="10.0147101469"><ele>29999.04</ele><time>2026-09-15T16:20:47Z</time></trkpt><trkpt lat="53.5651335865" lon="10.0147142541"><ele>29999.04</ele><time>2026-09-15T16:20:57Z</time></trkpt><trkpt lat="53.5653095227" lon="10.0147728436"><ele>29999.04</ele><time>2026-09-15T16:21:06Z</time></trkpt><trkpt lat="53.5654840339" lon="10.0148697384"><ele>29999.04</ele><time>2026-09-15T16:21:15Z</time></trkpt><trkpt lat="53.5658414382" lon="10.0151218660"><ele>29999.04</ele><time>2026-09-15T16:21:33Z</time></trkpt><trkpt lat="53.5660396703" lon="10.0151969679"><ele>29999.04</ele><time>2026-09-15T16:21:41Z</time></trkpt><trkpt lat="53.5662358906" lon="10.0152157433"><ele>29999.04</ele><time>2026-09-15T16:21:49Z</time></trkpt><trkpt lat="53.5664355475" lon="10.0152423978"><ele>29999.04</ele><time>2026-09-15T16:21:57Z</time></trkpt><trkpt lat="53.5666254815" lon="10.0152119715"><ele>29999.04</ele><time>2026-09-15T16:22:05Z</time></trkpt><trkpt lat="53.5669893399" lon="10.0150393043"><ele>29999.04</ele><time>2026-09-15T16:22:21Z</time></trkpt><trkpt lat="53.5674257856" lon="10.0144694187"><ele>29999.04</ele><time>2026-09-15T16:22:51Z</time></trkpt><trkpt lat="53.5679205693" lon="10.0140431989"><ele>29999.04</ele><time>2026-09-15T16:23:21Z</time></trkpt><trkpt lat="53.5681897961" lon="10.0136158057"><ele>29999.04</ele><time>2026-09-15T16:23:39Z</time></trkpt><trkpt lat="53.5687010922" lon="10.0123404991"><ele>29999.04</ele><time>2026-09-15T16:24:35Z</time></trkpt><trkpt lat="53.5688135773" lon="10.0121009443"><ele>29999.04</ele><time>2026-09-15T16:24:49Z</time></trkpt><trkpt lat="53.5689209495" lon="10.0118472241"><ele>29999.04</ele><time>2026-09-15T16:24:59Z</time></trkpt><trkpt lat="53.5690107197" lon="10.0115598924"><ele>29999.04</ele><time>2026-09-15T16:25:09Z</time></trkpt><trkpt lat="53.5691231210" lon="10.0109220296"><ele>29999.04</ele><time>2026-09-15T16:25:29Z</time></trkpt><trkpt lat="53.5691581573" lon="10.0106311776"><ele>29999.04</ele><time>2026-09-15T16:25:39Z</time></trkpt><trkpt lat="53.5691997316" lon="10.0103257410"><ele>29999.04</ele><time>2026-09-15T16:25:50Z</time></trkpt><trkpt lat="53.5692734085" lon="10.0100276805"><ele>29999.04</ele><time>2026-09-15T16:26:01Z</time></trkpt><trkpt lat="53.5693853907" lon="10.0097802468"><ele>29999.04</ele><time>2026-09-15T16:26:11Z</time></trkpt><trkpt lat="53.5698011331" lon="10.0091072638"><ele>29999.04</ele><time>2026-09-15T16:26:41Z</time></trkpt><trkpt lat="53.5699422844" lon="10.0089128874"><ele>29999.04</ele><time>2026-09-15T16:26:51Z</time></trkpt><trkpt lat="53.5701070726" lon="10.0087289885"><ele>29999.04</ele><time>2026-09-15T16:27:02Z</time></trkpt><trkpt lat="53.5702952463" lon="10.0086384639"><ele>29999.04</ele><time>2026-09-15T16:27:12Z</time></trkpt><trkpt lat="53.5710730031" lon="10.0084963068"><ele>29999.04</ele><time>2026-09-15T16:27:47Z</time></trkpt><trkpt lat="53.5714673717" lon="10.0083304290"><ele>29999.04</ele><time>2026-09-15T16:28:05Z</time></trkpt><trkpt lat="53.5720193200" lon="10.0080313627"><ele>29999.04</ele><time>2026-09-15T16:28:32Z</time></trkpt><trkpt lat="53.5728886072" lon="10.0073808432"><ele>29999.04</ele><time>2026-09-15T16:29:17Z</time></trkpt><trkpt lat="53.5738195851" lon="10.0068508554"><ele>29999.04</ele><time>2026-09-15T16:30:00Z</time></trkpt><trkpt lat="53.5741705354" lon="10.0065987278"><ele>29999.04</ele><time>2026-09-15T16:30:18Z</time></trkpt><trkpt lat="53.5743489861" lon="10.0064994860"><ele>29999.04</ele><time>2026-09-15T16:30:28Z</time></trkpt><trkpt lat="53.5750554968" lon="10.0059684087"><ele>29999.04</ele><time>2026-09-15T16:31:06Z</time></trkpt><trkpt lat="53.5752320196" lon="10.0059002638"><ele>29999.04</ele><time>2026-09-15T16:31:15Z</time></trkpt><trkpt lat="53.5754096322" lon="10.0058899540"><ele>29999.04</ele><time>2026-09-15T16:31:24Z</time></trkpt><trkpt lat="53.5755903460" lon="10.0059849210"><ele>29999.04</ele><time>2026-09-15T16:31:33Z</time></trkpt><trkpt lat="53.5757560562" lon="10.0061328616"><ele>29999.04</ele><time>2026-09-15T16:31:42Z</time></trkpt><trkpt lat="53.5758840479" lon="10.0063653756"><ele>29999.04</ele><time>2026-09-15T16:31:53Z</time></trkpt><trkpt lat="53.5759709682" lon="10.0066221971"><ele>29999.04</ele><time>2026-09-15T16:32:12Z</time></trkpt><trkpt lat="53.5760917515" lon="10.0068899151"><ele>29999.04</ele><time>2026-09-15T16:32:27Z</time></trkpt><trkpt lat="53.5763479862" lon="10.0073971879"><ele>29999.04</ele><time>2026-09-15T16:32:45Z</time></trkpt><trkpt lat="53.5764194001" lon="10.0076706056"><ele>29999.04</ele><time>2026-09-15T16:32:57Z</time></trkpt><trkpt lat="53.5765221622" lon="10.0079297740"><ele>29999.04</ele><time>2026-09-15T16:33:08Z</time></trkpt><trkpt lat="53.5766371619" lon="10.0081742741"><ele>29999.04</ele><time>2026-09-15T16:33:17Z</time></trkpt><trkpt lat="53.5768997669" lon="10.0086507015"><ele>29999.04</ele><time>2026-09-15T16:33:37Z</time></trkpt><trkpt lat="53.5771477874" lon="10.0091665238"><ele>29999.04</ele><time>2026-09-15T16:33:55Z</time></trkpt><trkpt lat="53.5773504619" lon="10.0097327214"><ele>29999.04</ele><time>2026-09-15T16:34:13Z</time></trkpt><trkpt lat="53.5774945468" lon="10.0103484560"><ele>29999.04</ele><time>2026-09-15T16:34:32Z</time></trkpt><trkpt lat="53.5775859095" lon="10.0106322672"><ele>29999.04</ele><time>2026-09-15T16:34:41Z</time></trkpt><trkpt lat="53.5779989697" lon="10.0116986129"><ele>29999.04</ele><time>2026-09-15T16:35:16Z</time></trkpt><trkpt lat="53.5781909153" lon="10.0122306123"><ele>29999.04</ele><time>2026-09-15T16:35:33Z</time></trkpt><trkpt lat="53.5783143807" lon="10.0124553312"><ele>29999.04</ele><time>2026-09-15T16:35:42Z</time></trkpt><trkpt lat="53.5784645844" lon="10.0126362126"><ele>29999.04</ele><time>2026-09-15T16:35:51Z</time></trkpt><trkpt lat="53.5786366649" lon="10.0128117297"><ele>29999.04</ele><time>2026-09-15T16:36:00Z</time></trkpt><trkpt lat="53.5791462008" lon="10.0132252090"><ele>29999.04</ele><time>2026-09-15T16:36:28Z</time></trkpt><trkpt lat="53.5793225560" lon="10.0132915098"><ele>29999.04</ele><time>2026-09-15T16:36:39Z</time></trkpt><trkpt lat="53.5795347858" lon="10.0134925079"><ele>29999.04</ele><time>2026-09-15T16:36:52Z</time></trkpt><trkpt lat="53.5797281563" lon="10.0135646760"><ele>29999.04</ele><time>2026-09-15T16:37:02Z</time></trkpt><trkpt lat="53.5798880830" lon="10.0135863852"><ele>29999.04</ele><time>2026-09-15T16:37:12Z</time></trkpt><trkpt lat="53.5800732393" lon="10.0137220044"><ele>29999.04</ele><time>2026-09-15T16:37:22Z</time></trkpt><trkpt lat="53.5804497544" lon="10.0140504912"><ele>29999.04</ele><time>2026-09-15T16:37:40Z</time></trkpt><trkpt lat="53.5808508284" lon="10.0144523196"><ele>29999.04</ele><time>2026-09-15T16:37:58Z</time></trkpt><trkpt lat="53.5809718631" lon="10.0146786310"><ele>29999.04</ele><time>2026-09-15T16:38:06Z</time></trkpt><trkpt lat="53.5810685065" lon="10.0149426609"><ele>29999.04</ele><time>2026-09-15T16:38:14Z</time></trkpt><trkpt lat="53.5811835062" lon="10.0151416473"><ele>29999.04</ele><time>2026-09-15T16:38:22Z</time></trkpt><trkpt lat="53.5813798103" lon="10.0156786758"><ele>29999.04</ele><time>2026-09-15T16:38:40Z</time></trkpt><trkpt lat="53.5815471970" lon="10.0162439514"><ele>29999.04</ele><time>2026-09-15T16:39:00Z</time></trkpt><trkpt lat="53.5815873463" lon="10.0165820774"><ele>29999.04</ele><time>2026-09-15T16:39:10Z</time></trkpt><trkpt lat="53.5818309244" lon="10.0181957614"><ele>29999.04</ele><time>2026-09-15T16:40:16Z</time></trkpt><trkpt lat="53.5819952935" lon="10.0191268232"><ele>29999.04</ele><time>2026-09-15T16:40:43Z</time></trkpt><trkpt lat="53.5820712335" lon="10.0194118079"><ele>29999.04</ele><time>2026-09-15T16:40:53Z</time></trkpt><trkpt lat="53.5822397098" lon="10.0198280532"><ele>29999.04</ele><time>2026-09-15T16:41:08Z</time></trkpt><trkpt lat="53.5821949504" lon="10.0202531833"><ele>29999.04</ele><time>2026-09-15T16:41:17Z</time></trkpt><trkpt lat="53.5822414700" lon="10.0208960753"><ele>29999.04</ele><time>2026-09-15T16:41:35Z</time></trkpt><trkpt lat="53.5823498480" lon="10.0214956328"><ele>29999.04</ele><time>2026-09-15T16:41:53Z</time></trkpt><trkpt lat="53.5826917458" lon="10.0229490548"><ele>29999.04</ele><time>2026-09-15T16:42:34Z</time></trkpt><trkpt lat="53.5829529259" lon="10.0237957947"><ele>29999.04</ele><time>2026-09-15T16:42:59Z</time></trkpt><trkpt lat="53.5831512418" lon="10.0243221782"><ele>29999.04</ele><time>2026-09-15T16:43:16Z</time></trkpt><trkpt lat="53.5834218934" lon="10.0252135098"><ele>29999.04</ele><time>2026-09-15T16:43:44Z</time></trkpt><trkpt lat="53.5837419145" lon="10.0261168275"><ele>29999.04</ele><time>2026-09-15T16:44:11Z</time></trkpt><trkpt lat="53.5838191956" lon="10.0264295563"><ele>29999.04</ele><time>2026-09-15T16:44:20Z</time></trkpt><trkpt lat="53.5839244723" lon="10.0267188996"><ele>29999.04</ele><time>2026-09-15T16:44:29Z</time></trkpt><trkpt lat="53.5839843191" lon="10.0270556007"><ele>29999.04</ele><time>2026-09-15T16:44:38Z</time></trkpt><trkpt lat="53.5840830579" lon="10.0273162778"><ele>29999.04</ele><time>2026-09-15T16:44:47Z</time></trkpt><trkpt lat="53.5842395481" lon="10.0282403827"><ele>29999.04</ele><time>2026-09-15T16:45:14Z</time></trkpt><trkpt lat="53.5842975508" lon="10.0289080013"><ele>29999.04</ele><time>2026-09-15T16:45:32Z</time></trkpt><trkpt lat="53.5845013987" lon="10.0304602459"><ele>29999.04</ele><time>2026-09-15T16:46:14Z</time></trkpt><trkpt lat="53.5846029036" lon="10.0310648326"><ele>29999.04</ele><time>2026-09-15T16:46:31Z</time></trkpt><trkpt lat="53.5848628264" lon="10.0319145061"><ele>29999.04</ele><time>2026-09-15T16:50:51Z</time></trkpt><trkpt lat="53.5848471522" lon="10.0318968203"><ele>29999.04</ele><time>2026-09-15T16:53:22Z</time></trkpt></trkseg></trk></gpx>