<?xml version="1.0" encoding="UTF-8" standalone="no" ?><gpx xmlns="http://www.topografix.com/GPX/1/1" xmlns:gpxx="http://www.garmin.com/xmlschemas/GpxExtensions/v3" xmlns:wptx1="http://www.garmin.com/xmlschemas/WaypointExtension/v1" xmlns:gpxtpx="http://www.garmin.com/xmlschemas/TrackPointExtension/v1" creator="Foretrex" version="1.1" xmlns:xsi="http://www.w3.org/2001/XMLSchema-instance" xsi:schemaLocation="http://www.topografix.com/GPX/1/1 http://www.topografix.com/GPX/1/1/gpx.xsd http://www.garmin.com/xmlschemas/GpxExtensions/v3 http://www8.garmin.com/xmlschemas/GpxExtensionsv3.xsd http://www.garmin.com/xmlschemas/TrackStatsExtension/v1 http://www8.garmin.com/xmlschemas/TrackStatsExtension.xsd http://www.garmin.com/xmlschemas/WaypointExtension/v1 http://www8.garmin.com/xmlschemas/WaypointExtensionv1.xsd http://www.garmin.com/xmlschemas/TrackPointExtension/v1 http://www.garmin.com/xmlschemas/TrackPointExtensionv1.xsd"><metadata><link href="http://www.garmin.com"><text>Garmin International</text></link><time>2026-08-09T12:23:13Z</time></metadata><wpt lat="53.584793" lon="10.031811"><ele>35.083401</ele><time>2026-08-09T12:23:13Z</time><name>001</name><sym>Waypoint</sym></wpt><wpt lat="53.585257" lon="10.074824"><ele>-29.447662</ele><time>2026-08-23T18:53:25Z</time><name>002</name><sym>Waypoint</sym></wpt><wpt lat="53.585257" lon="10.074824"><ele>-29.391680</ele><time>2026-08-23T18:52:58Z</time><name>003</name><sym>Waypoint</sym></wpt><wpt lat="53.585257" lon="10.074824"><ele>-29.242388</ele><time>2026-08-23T18:53:33Z</time><name>004</name><sym>Waypoint</sym></wpt><wpt lat="53.585257" lon="10.074824"><ele>-29.242388</ele><time>2026-08-23T18:58:24Z</time><name>005</name><sym>Waypoint</sym></wpt><wpt lat="53.585257" lon="10.074824"><ele>-29.242388</ele><time>2026-08-23T18:58:29Z</time><name>006</name><sym>Waypoint</sym></wpt><wpt lat="53.584662" lon="10.031847"><ele>-63.905907</ele><time>2026-09-14T18:55:26Z</time><name>007</name><sym>Waypoint</sym></wpt></gpx>